{"type":"FeatureCollection","features":[{"type":"Feature","geometry":{"type":"Polygon","coordinates":[[[-103.27,38.03],[-103.23,38.07],[-103.19,38.1],[-103.13,38.05],[-103.17,38.01],[-103.21,37.98],[-103.27,38.03]]]},"properties":{"event":"Flood Warning","headline":"Flood Warning issued October 2 at 3:25PM MDT until October 4 at 8:00AM MDT by NWS Pueblo CO","description":"...The Flood Warning is extended for the following rivers in\nColorado...\n\nPurgatoire River Near Purgatoire R near Las Animas affecting Bent\nCounty.\n\nFor the Purgatoire River...including Purgatoire near Las Animas...\nMinor flooding is forecast.\n\n* WHAT...Minor flooding is forecast.\n\n* WHERE...Purgatoire River near Purgatoire R near Las Animas.\n\n* WHEN...Until Sunday morning.\n\n* IMPACTS...At 12.0 feet, Moderate Flood. Moderate agricultural\nflooding occurs in low lying areas along the river.\n\n* ADDITIONAL DETAILS...\n- At 3:15 PM MDT Friday the stage was 8.5 feet.\n- Forecast...The river is expected to rise above flood stage late\nthis afternoon to a crest of 10.8 feet early tomorrow afternoon.\nIt will then fall below flood stage Sunday afternoon.\n- Flood stage is 9.0 feet.\n- Flood History...This crest compares to a previous crest of 10.5\nfeet on 08/19/2004.\n- http://www.weather.gov/safety/flood","ends":"2026-10-04T08:00:00-06:00","severity":"Severe","areaDesc":"Bent, CO","id":"urn:oid:2.49.0.1.840.0.7e4b618201cf9b1ada047d9e4cc65eae92fe482a.001.1","url":"https://api.weather.gov/alerts/urn:oid:2.49.0.1.840.0.7e4b618201cf9b1ada047d9e4cc65eae92fe482a.001.1"}}]}