{"type":"FeatureCollection","features":[{"type":"Feature","geometry":{"type":"Point","coordinates":[-105.063167,40.417833]},"properties":{"callsign":"K5NWZ","temp_f":51,"humidity":79,"wind_speed_mph":1,"observed":"2026-10-02T07:21:58Z","network":"CWOP/APRS"}},{"type":"Feature","geometry":{"type":"Point","coordinates":[-104.713667,40.383833]},"properties":{"callsign":"N7SWJ","temp_f":52,"humidity":81,"wind_speed_mph":0,"observed":"2026-10-02T07:24:30Z","network":"CWOP/APRS"}},{"type":"Feature","geometry":{"type":"Point","coordinates":[-105.149,40.198333]},"properties":{"callsign":"N2XGL-1","temp_f":52,"humidity":76,"wind_speed_mph":2,"observed":"2026-10-02T07:20:56Z","network":"CWOP/APRS"}},{"type":"Feature","geometry":{"type":"Point","coordinates":[-105.147667,39.976667]},"properties":{"callsign":"W0RMT-13","temp_f":49,"humidity":84,"wind_speed_mph":0,"observed":"2026-10-02T07:16:46Z","network":"CWOP/APRS"}},{"type":"Feature","geometry":{"type":"Point","coordinates":[-105.005333,39.8195]},"properties":{"callsign":"GW4003","temp_f":58,"humidity":61,"wind_speed_mph":1,"observed":"2026-10-02T07:22:21Z","network":"CWOP/APRS"}},{"type":"Feature","geometry":{"type":"Point","coordinates":[-104.747333,39.790667]},"properties":{"callsign":"WI0K","temp_f":57,"humidity":64,"wind_speed_mph":2,"observed":"2026-10-02T07:25:25Z","network":"CWOP/APRS"}},{"type":"Feature","geometry":{"type":"Point","coordinates":[-105.860833,40.004833]},"properties":{"callsign":"KJ5PEC-13","temp_f":40,"humidity":74,"wind_speed_mph":1,"observed":"2026-10-02T07:24:01Z","network":"CWOP/APRS"}},{"type":"Feature","geometry":{"type":"Point","coordinates":[-104.773833,39.6905]},"properties":{"callsign":"KO4YAW","temp_f":56,"humidity":67,"wind_speed_mph":5,"observed":"2026-10-02T07:20:01Z","network":"CWOP/APRS"}},{"type":"Feature","geometry":{"type":"Point","coordinates":[-104.970833,39.597]},"properties":{"callsign":"HEQ","temp_f":null,"humidity":null,"wind_speed_mph":2,"observed":"2026-10-02T07:10:30Z","network":"CWOP/APRS"}},{"type":"Feature","geometry":{"type":"Point","coordinates":[-104.970833,39.597]},"properties":{"callsign":"N0HEQ","temp_f":56,"humidity":66,"wind_speed_mph":0,"observed":"2026-10-02T07:25:36Z","network":"CWOP/APRS"}},{"type":"Feature","geometry":{"type":"Point","coordinates":[-105.3735,39.556667]},"properties":{"callsign":"KE0TNI13","temp_f":null,"humidity":null,"wind_speed_mph":0,"observed":"2026-10-02T03:17:28Z","network":"CWOP/APRS"}},{"type":"Feature","geometry":{"type":"Point","coordinates":[-105.3735,39.556667]},"properties":{"callsign":"KE0TNI-13","temp_f":37,"humidity":92,"wind_speed_mph":3,"observed":"2026-10-02T07:24:36Z","network":"CWOP/APRS"}},{"type":"Feature","geometry":{"type":"Point","coordinates":[-104.695167,39.5865]},"properties":{"callsign":"KE8FEN-13","temp_f":52,"humidity":80,"wind_speed_mph":8,"observed":"2026-10-02T07:21:29Z","network":"CWOP/APRS"}},{"type":"Feature","geometry":{"type":"Point","coordinates":[-104.924667,39.368833]},"properties":{"callsign":"WB7AAV","temp_f":51,"humidity":77,"wind_speed_mph":8,"observed":"2026-10-02T07:24:02Z","network":"CWOP/APRS"}},{"type":"Feature","geometry":{"type":"Point","coordinates":[-104.644667,39.4385]},"properties":{"callsign":"KG5TTF","temp_f":50,"humidity":80,"wind_speed_mph":4,"observed":"2026-10-02T07:21:40Z","network":"CWOP/APRS"}},{"type":"Feature","geometry":{"type":"Point","coordinates":[-104.931833,39.200333]},"properties":{"callsign":"N4CRH-13","temp_f":52,"humidity":67,"wind_speed_mph":6,"observed":"2026-10-02T07:21:57Z","network":"CWOP/APRS"}},{"type":"Feature","geometry":{"type":"Point","coordinates":[-104.822667,39.066667]},"properties":{"callsign":"KF0TNT","temp_f":45,"humidity":94,"wind_speed_mph":1,"observed":"2026-10-02T07:21:17Z","network":"CWOP/APRS"}},{"type":"Feature","geometry":{"type":"Point","coordinates":[-104.783667,39.046167]},"properties":{"callsign":"N5JXS","temp_f":44,"humidity":95,"wind_speed_mph":0,"observed":"2026-10-02T07:25:24Z","network":"CWOP/APRS"}},{"type":"Feature","geometry":{"type":"Point","coordinates":[-104.641667,38.998]},"properties":{"callsign":"K0QED","temp_f":43,"humidity":98,"wind_speed_mph":1,"observed":"2026-10-02T07:20:52Z","network":"CWOP/APRS"}},{"type":"Feature","geometry":{"type":"Point","coordinates":[-104.725333,38.938333]},"properties":{"callsign":"WB0YAF-8","temp_f":48,"humidity":72,"wind_speed_mph":0,"observed":"2026-10-02T07:21:44Z","network":"CWOP/APRS"}},{"type":"Feature","geometry":{"type":"Point","coordinates":[-105.768167,39.089333]},"properties":{"callsign":"WD4IXD-WX","temp_f":38,"humidity":89,"wind_speed_mph":0,"observed":"2026-10-02T07:25:04Z","network":"CWOP/APRS"}},{"type":"Feature","geometry":{"type":"Point","coordinates":[-104.835667,38.863667]},"properties":{"callsign":"KF0PEC-15","temp_f":45,"humidity":93,"wind_speed_mph":0,"observed":"2026-10-02T07:25:25Z","network":"CWOP/APRS"}},{"type":"Feature","geometry":{"type":"Point","coordinates":[-104.850333,38.7975]},"properties":{"callsign":"W1REE","temp_f":43,"humidity":91,"wind_speed_mph":0,"observed":"2026-10-02T07:25:30Z","network":"CWOP/APRS"}},{"type":"Feature","geometry":{"type":"Point","coordinates":[-104.664833,38.7205]},"properties":{"callsign":"N0RHA","temp_f":45,"humidity":94,"wind_speed_mph":0,"observed":"2026-10-02T07:25:42Z","network":"CWOP/APRS"}},{"type":"Feature","geometry":{"type":"Point","coordinates":[-104.7045,38.393333]},"properties":{"callsign":"KD0SBN","temp_f":50,"humidity":91,"wind_speed_mph":0,"observed":"2026-10-02T07:25:18Z","network":"CWOP/APRS"}},{"type":"Feature","geometry":{"type":"Point","coordinates":[-105.151333,38.382]},"properties":{"callsign":"W0NLK-13","temp_f":47,"humidity":null,"wind_speed_mph":0,"observed":"2026-10-02T07:02:52Z","network":"CWOP/APRS"}},{"type":"Feature","geometry":{"type":"Point","coordinates":[-104.947833,37.285667]},"properties":{"callsign":"KD0SBN-3","temp_f":42,"humidity":76,"wind_speed_mph":0,"observed":"2026-10-02T07:20:53Z","network":"CWOP/APRS"}},{"type":"Feature","geometry":{"type":"Point","coordinates":[-107.085167,39.383167]},"properties":{"callsign":"W6C","temp_f":51,"humidity":55,"wind_speed_mph":0,"observed":"2026-10-02T06:28:38Z","network":"CWOP/APRS"}},{"type":"Feature","geometry":{"type":"Point","coordinates":[-107.085167,39.383167]},"properties":{"callsign":"W6CKC","temp_f":50,"humidity":57,"wind_speed_mph":2,"observed":"2026-10-02T07:24:13Z","network":"CWOP/APRS"}},{"type":"Feature","geometry":{"type":"Point","coordinates":[-107.335333,39.563167]},"properties":{"callsign":"K9MWM-1","temp_f":48,"humidity":null,"wind_speed_mph":0,"observed":"2026-10-02T07:24:43Z","network":"CWOP/APRS"}},{"type":"Feature","geometry":{"type":"Point","coordinates":[-106.119667,38.834167]},"properties":{"callsign":"W1CAT","temp_f":36,"humidity":98,"wind_speed_mph":0,"observed":"2026-10-02T07:24:48Z","network":"CWOP/APRS"}},{"type":"Feature","geometry":{"type":"Point","coordinates":[-106.1085,38.819]},"properties":{"callsign":"KF5WCW-1","temp_f":41,"humidity":95,"wind_speed_mph":0,"observed":"2026-10-02T07:25:26Z","network":"CWOP/APRS"}},{"type":"Feature","geometry":{"type":"Point","coordinates":[-107.773333,39.553]},"properties":{"callsign":"N0THY","temp_f":48,"humidity":71,"wind_speed_mph":0,"observed":"2026-10-02T07:25:20Z","network":"CWOP/APRS"}},{"type":"Feature","geometry":{"type":"Point","coordinates":[-106.0035,38.528167]},"properties":{"callsign":"SALIDA","temp_f":39,"humidity":91,"wind_speed_mph":0,"observed":"2026-10-02T07:11:00Z","network":"CWOP/APRS"}},{"type":"Feature","geometry":{"type":"Point","coordinates":[-107.029667,37.265167]},"properties":{"callsign":"KC0OOO-WX","temp_f":44,"humidity":81,"wind_speed_mph":0,"observed":"2026-10-02T07:23:34Z","network":"CWOP/APRS"}},{"type":"Feature","geometry":{"type":"Point","coordinates":[-107.787167,37.206]},"properties":{"callsign":"KY0TEQ-13","temp_f":48,"humidity":78,"wind_speed_mph":1,"observed":"2026-10-02T07:21:58Z","network":"CWOP/APRS"}},{"type":"Feature","geometry":{"type":"Point","coordinates":[-108.498167,39.085833]},"properties":{"callsign":"AB0TJ","temp_f":94,"humidity":12,"wind_speed_mph":2,"observed":"2026-10-02T07:20:49Z","network":"CWOP/APRS"}},{"type":"Feature","geometry":{"type":"Point","coordinates":[-103.2165,40.626167]},"properties":{"callsign":"WX0ABE-13","temp_f":53,"humidity":73,"wind_speed_mph":2,"observed":"2026-10-02T07:23:37Z","network":"CWOP/APRS"}}]}