{"type":"FeatureCollection","features":[{"type":"Feature","geometry":{"type":"Point","coordinates":[-105.02341,40.86597]},"properties":{"brightness":295.61,"frp":1,"confidence":"n","observed":"2026-10-04T08:07:00Z","satellite":"N"}},{"type":"Feature","geometry":{"type":"Point","coordinates":[-102.69274,40.88642]},"properties":{"brightness":299.37,"frp":0.52,"confidence":"n","observed":"2026-10-04T08:07:00Z","satellite":"N"}},{"type":"Feature","geometry":{"type":"Point","coordinates":[-104.60542,38.23493]},"properties":{"brightness":308.16,"frp":1.18,"confidence":"n","observed":"2026-10-04T09:48:00Z","satellite":"N"}},{"type":"Feature","geometry":{"type":"Point","coordinates":[-105.01727,38.38582]},"properties":{"brightness":296.98,"frp":0.5,"confidence":"n","observed":"2026-10-04T09:48:00Z","satellite":"N"}}]}