{"type":"FeatureCollection","features":[{"type":"Feature","properties":{"density":"light"},"geometry":{"type":"Polygon","coordinates":[[[-104.50602,49.94143],[-102.22505,49.71077],[-100.27726,49.787656],[-98.944554,50.120832],[-97.919399,50.37712],[-97.022389,50.812811],[-95.971605,51.274131],[-95.330883,51.709822],[-94.71579,52.324915],[-93.613749,52.88875],[-92.46045,53.016894],[-91.30715,52.88875],[-90.41014,52.478688],[-89.94882,51.991739],[-89.538758,51.222873],[-88.872408,50.351492],[-88.103542,49.556997],[-87.027129,48.634357],[-86.335149,48.070522],[-85.976345,47.147883],[-86.437665,45.687037],[-87.180902,44.764398],[-88.718634,43.662356],[-90.897088,43.12415],[-92.332305,42.483428],[-95.228368,40.996954],[-97.073646,39.997428],[-98.278203,39.228562],[-99.303358,38.844129],[-100.43103,38.639098],[-101.50744,38.664726],[-102.19942,38.895386],[-102.43008,39.561737],[-102.25068,40.099943],[-101.45618,40.715036],[-100.68732,41.176356],[-100.0466,41.817078],[-98.995812,42.688459],[-97.842512,43.406068],[-97.099275,43.867387],[-96.53544,44.200563],[-95.997234,44.584996],[-95.356512,45.046315],[-94.972079,45.712666],[-94.94645,46.276501],[-94.972079,46.737821],[-95.228368,46.917223],[-95.740945,47.224769],[-96.381667,47.352914],[-97.048017,47.378543],[-98.380719,47.224769],[-100.0466,47.147883],[-101.12301,47.147883],[-101.96876,47.224769],[-102.99392,47.378543],[-103.91655,47.557945],[-104.68542,47.839862],[-105.30051,48.275553],[-105.53117,48.557471],[-105.65932,49.044419],[-105.71058,49.48011],[-105.68495,49.608254],[-105.30051,49.813285],[-104.89045,49.915801],[-104.83919,49.915801],[-104.50602,49.94143]]]}},{"type":"Feature","properties":{"density":"light"},"geometry":{"type":"Polygon","coordinates":[[[-110.79353756006643,42.904878729601144],[-110.74797505675022,42.8947537288642],[-110.36322502874677,42.83400372444261],[-110.14047501253424,42.77831622038947],[-109.98353750111177,42.71250371559941],[-109.85191249153164,42.65681621154627],[-109.8114124885839,42.585941206387744],[-109.83672499042623,42.530253702334605],[-109.89747499484784,42.51000370086074],[-110.02910000442796,42.54544120344001],[-110.1607250140081,42.57581620565081],[-110.24172501990355,42.6061912078616],[-110.28222502285132,42.61125370823008],[-110.68722505232864,42.651753711177804],[-110.8441625637511,42.69731621449401],[-110.92010006927812,42.75806621891561],[-110.92010006927812,42.81375372296874],[-110.89478756743577,42.87956622775881],[-110.849224609375,42.90994140625],[-110.79353756006643,42.904878729601144]]]}},{"type":"Feature","properties":{"density":"light"},"geometry":{"type":"Polygon","coordinates":[[[-103.1983836020145,37.49196427805409],[-103.21525860324273,37.44808927486071],[-103.25913360643611,37.43796427412378],[-103.32325861110334,37.461589275843295],[-103.36375861405108,37.47846427707151],[-103.49200862338557,37.52233928026489],[-103.55950862829845,37.57296428394956],[-103.43125861896397,37.576339284195186],[-103.32663361134898,37.559464282966985],[-103.2287587890625,37.532464843749985],[-103.1983836020145,37.49196427805409]]]}},{"type":"Feature","properties":{"density":"light"},"geometry":{"type":"Polygon","coordinates":[[[-89.43393829345703,52.8137275390625],[-88.58818418560129,52.30114957837504],[-87.43488315252736,51.58354004668459],[-86.35846885499167,50.763414867609775],[-85.58960149960905,49.91766077668889],[-84.82073414422642,48.815617567307115],[-84.33378481915075,47.918605652694055],[-84.07749570068988,46.66278897223576],[-84.18001134807423,45.022538614086145],[-85.20516782191773,41.46011986747997],[-85.99966408914645,40.306818834406016],[-86.97356273929778,39.28166236056252],[-88.28063724344824,38.666568476256415],[-89.99777433713612,38.179619151180745],[-91.35610666497877,37.923330032719875],[-92.99635702312837,37.48763853133639],[-95.02104105896929,36.8212868233381],[-96.37937338681195,36.10367729164765],[-97.68644789096241,35.1810364651885],[-99.22418260172766,34.51468475719022],[-100.09556560449464,34.07899325580672],[-100.71065948880074,33.668930666269326],[-101.658929227106,34.15587999134499],[-101.19760881387641,34.770973875651094],[-100.58251492957031,35.25792320072675],[-99.81364757418768,36.07804837980156],[-99.3779560728042,36.513739881185046],[-98.94226457142071,37.000689206260716],[-98.3271706871146,37.59015417872073],[-97.35327203696328,38.41027935779554],[-95.94368188542845,39.46106474348513],[-95.91805297358236,39.79424059748426],[-96.09745535650498,40.89628380686604],[-96.0461975328128,41.74203789778693],[-95.76427950250584,42.30587395840086],[-93.63707981928057,45.99643726423748],[-93.45767743635795,46.688417884081844],[-92.99635702312837,47.58542979869491],[-92.22748966774574,50.55838357284108],[-92.17623184405358,51.48102439930023],[-91.91994272559269,51.94234481252981],[-91.4842512242092,52.30114957837503],[-90.94604407544136,52.608696520528085],[-90.30532127928917,52.89061455083505],[-89.43393829345703,52.8137275390625]]]}},{"type":"Feature","properties":{"density":"medium"},"geometry":{"type":"Polygon","coordinates":[[[-110.71253755417096,42.859316226284946],[-110.68722505232864,42.85425372591648],[-110.62647504790704,42.84919122554801],[-110.5859750449593,42.83400372444261],[-110.53535004127463,42.823878723705675],[-110.46953753648457,42.81375372296874],[-110.43410003390531,42.80362872223181],[-110.35310002800983,42.788441221126405],[-110.28222502285132,42.753003718547134],[-110.25185002064052,42.722628716336345],[-110.26197502137744,42.687191213757075],[-110.31766252543058,42.67200371265167],[-110.3733500294837,42.666941212283206],[-110.43410003390531,42.66187871191474],[-110.50497503906384,42.687191213757075],[-110.59103754532777,42.702378714862476],[-110.66697505085477,42.71250371559941],[-110.7074750538025,42.71756621596788],[-110.75810005748717,42.722628716336345],[-110.8289750626457,42.73275371707328],[-110.8745375659619,42.753003718547134],[-110.8745375659619,42.80362872223181],[-110.85428756448806,42.87450372739035],[-110.81884960937501,42.88462890625],[-110.71253755417096,42.859316226284946]]]}},{"type":"Feature","properties":{"density":"heavy"},"geometry":{"type":"Polygon","coordinates":[[[-110.8289750626457,42.83906622481108],[-110.78847505969796,42.85425372591648],[-110.7530375571187,42.85425372591648],[-110.71253755417098,42.844128725179544],[-110.6467250493809,42.828941224074136],[-110.66697505085477,42.808691222600274],[-110.71253755417099,42.79350372149487],[-110.76316255785562,42.79350372149487],[-110.80872506117184,42.808691222600274],[-110.85428710937501,42.81375390625],[-110.8289750626457,42.83906622481108]]]}}]}