{"type":"FeatureCollection","features":[{"type":"Feature","properties":{"DN":5,"VALID":"202609131700","EXPIRE":"202609141200","ISSUE":"202609131642","VALID_ISO":"2026-09-13T17:00:00+00:00","EXPIRE_ISO":"2026-09-14T12:00:00+00:00","ISSUE_ISO":"2026-09-13T16:42:00+00:00","FORECASTER":"Williams","LABEL":"ELEV","LABEL2":"Elevated Fire Risk","stroke":"#FF7F00","fill":"#FFBF80","product":"day1_windrh"},"geometry":{"type":"MultiPolygon","coordinates":[[[[-117.61,37.8],[-118.25,37.6],[-118.82,37.6],[-119.13,37.89],[-119.66,38.49],[-120.3,39.07],[-120.43,39.44],[-120.3,40.05],[-119.57,40.55],[-118.9,41.06],[-117.73,41.74],[-117.28,42.08],[-116.55,42.52],[-115.85,42.88],[-115.23,43.13],[-114.78999999999999,43.41],[-114.45,43.75],[-113.98,45.53],[-112.93,46.14],[-112.37,46.18],[-111.33,45.88],[-111.02,45.6],[-111.11,45.01],[-111.34,44.39],[-111.45,44.17],[-112.08,43.55],[-112.76,43.25],[-113.49,42.99],[-114.4,42.68],[-114.72,42.09],[-114.62,41.74],[-114.31,41.45],[-114.12,40.66],[-114,40.2],[-113.93,40.05],[-113.73,39.92],[-113.33,39.91],[-113.12,39.79],[-112.97,39.51],[-113.05,39.17],[-113.15,39],[-114,38.32],[-114.52,37.87],[-115.14,37.48],[-115.91,37.41],[-116.38,37.54],[-116.78999999999999,37.76],[-116.97,37.86],[-117.32,37.86],[-117.61,37.8]]],[[[-108.99,44.19],[-108.86,44.3],[-108.61,44.37],[-108.38,44.4],[-107.88,44.66],[-107.75,44.68],[-107.61,44.62],[-107.4,44.49],[-107.14,44.42],[-106.98,44.49],[-106.63,44.56],[-106.28,44.49],[-106.07,44.35],[-106.01,44.15],[-106.06,43.65],[-106.11,43.42],[-106.2,43.17],[-106.51,42.7],[-106.76,42.5],[-107.12,42.39],[-108.15,42.56],[-108.86,42.81],[-109.1,42.99],[-109.4,43.31],[-109.31,43.49],[-109.07,43.96],[-108.99,44.19]]]]}},{"type":"Feature","properties":{"DN":5,"VALID":"202609141200","EXPIRE":"202609151200","ISSUE":"202609131925","VALID_ISO":"2026-09-14T12:00:00+00:00","EXPIRE_ISO":"2026-09-15T12:00:00+00:00","ISSUE_ISO":"2026-09-13T19:25:00+00:00","FORECASTER":"Williams","LABEL":"ELEV","LABEL2":"Elevated Fire Risk","stroke":"#FF7F00","fill":"#FFBF80","product":"day2_windrh"},"geometry":{"type":"MultiPolygon","coordinates":[[[[-108.86,44.95],[-107.94,45.05],[-106.57,45.38],[-104.51,45.53],[-103.1,45.53],[-102.44,45.49],[-102.06,45.42],[-101.94,45.22],[-101.94,44.87],[-102.19,44.47],[-102.59,44.27],[-102.93,44.3],[-103.21,44.28],[-104.36,44.05],[-104.55,43.93],[-104.73,43.72],[-104.78,43.53],[-104.69,43.35],[-104.23,43.14],[-103.63,42.75],[-103.47,42.51],[-103.32,42.23],[-103.41,42.05],[-103.55,41.93],[-103.97,41.79],[-104.84,41.8],[-105.28,41.69],[-105.61,41.62],[-106.03,41.6],[-106.58,41.64],[-107.29,41.79],[-107.9,41.92],[-108.14,42.05],[-108.59,42.33],[-109.03,42.77],[-109.36,43.21],[-109.51,43.47],[-109.44,43.61],[-109.22,43.68],[-109.02,43.75],[-108.98,43.91],[-108.99,43.96],[-109.03,44.14],[-109.09,44.33],[-109.09,44.47],[-109.03999999999999,44.69],[-108.86,44.95]]],[[[-100.2,34.92],[-99.9,35.19],[-99.25,35.32],[-98.67,35.69],[-98.38,35.72],[-97.99,35.51],[-97.67,35.11],[-97.57,34.67],[-97.81,34.06],[-98.98,33.23],[-99.66,32.85],[-100.09,32.71],[-100.61,32.75],[-100.98,33.13],[-101.05,33.9],[-100.99,34.07],[-100.68,34.4],[-100.43,34.7],[-100.2,34.92]]]]}}]}