{"type":"FeatureCollection","features":[{"type":"Feature","geometry":{"type":"MultiPolygon","coordinates":[[[[-107.376397,37.423612],[-107.355997,37.423112],[-107.166097,37.422912],[-107.128697,37.421912],[-107.128697,37.407124],[-107.1287,37.39241],[-107.113396,37.392513],[-107.045296,37.392311],[-107.000595,37.393112],[-106.939194,37.393612],[-106.875595,37.394012],[-106.871201,37.393711],[-106.7509,37.396011],[-106.7295,37.396011],[-106.7108,37.396214],[-106.710197,37.404312],[-106.678398,37.403612],[-106.678299,37.375813],[-106.678093,37.363411],[-106.678696,37.250011],[-106.678398,37.228611],[-106.597397,37.195011],[-106.589195,37.140213],[-106.489098,37.015114],[-106.476196,36.993713],[-106.5093,36.993713],[-106.591194,36.992912],[-106.616898,36.993011],[-106.628693,36.993214],[-106.661697,36.993214],[-106.750595,36.992413],[-106.869797,36.992413],[-106.875595,36.998314],[-106.8778,37.000111],[-107.422397,36.999912],[-107.481697,37.000011],[-107.4814,37.093811],[-107.482094,37.124714],[-107.482094,37.214413],[-107.4823,37.250214],[-107.482094,37.290012],[-107.482097,37.321712],[-107.482297,37.323612],[-107.482297,37.328712],[-107.482097,37.337112],[-107.481997,37.362112],[-107.481997,37.371312],[-107.482197,37.376212],[-107.482097,37.422712],[-107.376397,37.423612]]],[[[-107.500999,39.217712],[-107.500999,39.133114],[-107.500793,39.125511],[-107.500595,39.069214],[-107.500597,38.840312],[-107.500997,38.836512],[-107.500597,38.832512],[-107.500597,38.669412],[-107.530296,38.66851],[-107.737297,38.668312],[-107.774994,38.667912],[-107.848595,38.668114],[-108.244428,38.668136],[-108.2446,38.668512],[-108.250597,38.668412],[-108.265497,38.668612],[-108.270097,38.668412],[-108.275597,38.668712],[-108.291997,38.668312],[-108.303397,38.668312],[-108.322797,38.668712],[-108.325252,38.66815],[-108.375597,38.668112],[-108.378697,38.668812],[-108.378797,38.750012],[-108.378997,38.755111],[-108.378825,38.755077],[-108.378998,38.785912],[-108.378799,38.822014],[-108.378494,38.829514],[-108.3722,38.831413],[-108.322399,38.847692],[-108.250597,38.871412],[-108.230497,38.877712],[-108.204197,38.886212],[-108.185597,38.892412],[-108.176497,38.896312],[-108.174397,38.898012],[-108.170697,38.898512],[-108.168397,38.900912],[-108.165097,38.902312],[-108.158697,38.901012],[-108.156097,38.901312],[-108.153697,38.901212],[-108.151397,38.902112],[-108.149097,38.905312],[-108.146297,38.907412],[-108.143197,38.906912],[-108.140797,38.907312],[-108.141597,38.911212],[-108.144397,38.915812],[-108.143797,38.919012],[-108.140797,38.921112],[-108.139797,38.925012],[-108.136497,38.925612],[-108.131097,38.922412],[-108.128797,38.923012],[-108.126397,38.924012],[-108.123097,38.925612],[-108.120897,38.927112],[-108.118197,38.930412],[-108.113897,38.935112],[-108.111397,38.937212],[-108.108497,38.940212],[-108.102397,38.948912],[-108.093497,38.957612],[-108.090697,38.959812],[-108.087997,38.962912],[-108.087097,38.966612],[-108.092297,38.976512],[-108.094197,38.979512],[-108.091397,38.980912],[-108.088297,38.982112],[-108.083697,38.986712],[-108.081997,38.988912],[-108.078897,38.991612],[-108.075997,38.992712],[-108.070997,38.996112],[-108.066897,39.000312],[-108.063797,39.004612],[-108.061497,39.005312],[-108.058697,39.007712],[-108.055697,39.011112],[-108.054097,39.013612],[-108.050397,39.014912],[-108.047797,39.012212],[-108.045097,39.012212],[-108.042897,39.013812],[-108.038997,39.015512],[-108.035897,39.018812],[-108.034597,39.022612],[-108.032697,39.025112],[-108.031297,39.027912],[-108.026797,39.029812],[-108.023097,39.030812],[-108.020597,39.033112],[-108.016597,39.035612],[-108.009697,39.039612],[-108.005197,39.041512],[-108.002597,39.043012],[-108.000997,39.044812],[-107.995897,39.048212],[-107.990997,39.050412],[-107.987197,39.052912],[-107.982997,39.059012],[-107.979697,39.060312],[-107.972597,39.061212],[-107.963397,39.059812],[-107.960197,39.060112],[-107.953697,39.059712],[-107.946097,39.060612],[-107.942097,39.060812],[-107.937797,39.061912],[-107.930297,39.062412],[-107.923397,39.063412],[-107.918197,39.063812],[-107.913997,39.062812],[-107.911597,39.062612],[-107.909397,39.061112],[-107.906897,39.060712],[-107.901197,39.064912],[-107.897797,39.066112],[-107.894297,39.066012],[-107.886997,39.067512],[-107.884897,39.068912],[-107.880297,39.071012],[-107.874997,39.071612],[-107.872897,39.073712],[-107.866497,39.075612],[-107.858597,39.079812],[-107.855397,39.077012],[-107.852197,39.078312],[-107.848197,39.078012],[-107.844497,39.077112],[-107.840897,39.076912],[-107.838197,39.076512],[-107.828697,39.072112],[-107.821897,39.070512],[-107.819497,39.070512],[-107.814797,39.067712],[-107.802097,39.064512],[-107.798897,39.063012],[-107.793097,39.061112],[-107.790497,39.058612],[-107.787397,39.056212],[-107.780097,39.052412],[-107.777997,39.050012],[-107.775097,39.047412],[-107.770897,39.044012],[-107.766397,39.044112],[-107.763197,39.046712],[-107.759897,39.047812],[-107.757297,39.049312],[-107.755497,39.053512],[-107.751397,39.054212],[-107.747997,39.055612],[-107.745897,39.057312],[-107.743297,39.058312],[-107.744397,39.061312],[-107.742097,39.063912],[-107.738097,39.065712],[-107.734797,39.066012],[-107.732697,39.063712],[-107.729997,39.066012],[-107.726197,39.065712],[-107.722097,39.066012],[-107.721597,39.068912],[-107.719597,39.070912],[-107.716797,39.074212],[-107.715197,39.075812],[-107.713697,39.078012],[-107.712997,39.080012],[-107.710597,39.081512],[-107.709297,39.083012],[-107.703997,39.084912],[-107.700997,39.084112],[-107.694797,39.085012],[-107.693497,39.087212],[-107.689697,39.087312],[-107.687197,39.088312],[-107.685097,39.091012],[-107.682997,39.092812],[-107.681797,39.096912],[-107.680497,39.100012],[-107.676897,39.100412],[-107.674197,39.101212],[-107.672397,39.106112],[-107.669197,39.108712],[-107.666197,39.109112],[-107.663897,39.109812],[-107.661697,39.111012],[-107.660397,39.112612],[-107.662397,39.115712],[-107.660597,39.118412],[-107.657997,39.120612],[-107.655797,39.123012],[-107.653497,39.124912],[-107.653597,39.126612],[-107.652897,39.128412],[-107.651297,39.130612],[-107.647597,39.131712],[-107.645797,39.134112],[-107.640597,39.139412],[-107.637197,39.141612],[-107.632297,39.141812],[-107.630597,39.144712],[-107.630097,39.146512],[-107.628197,39.148612],[-107.621997,39.151012],[-107.619597,39.153812],[-107.616797,39.155312],[-107.613697,39.155012],[-107.610997,39.156712],[-107.609197,39.159412],[-107.606897,39.161712],[-107.603797,39.162912],[-107.599197,39.164312],[-107.593597,39.165212],[-107.590597,39.167212],[-107.585797,39.171112],[-107.583997,39.173212],[-107.580897,39.174612],[-107.576897,39.175012],[-107.572997,39.176412],[-107.570397,39.178612],[-107.569497,39.180612],[-107.567097,39.181212],[-107.563297,39.179912],[-107.560697,39.178512],[-107.556297,39.178612],[-107.551897,39.179912],[-107.548697,39.181212],[-107.545397,39.181512],[-107.542797,39.182312],[-107.542097,39.184312],[-107.543597,39.186312],[-107.543097,39.189112],[-107.542897,39.191912],[-107.543397,39.194212],[-107.541897,39.196012],[-107.538297,39.197612],[-107.534997,39.198612],[-107.531797,39.199012],[-107.527097,39.199912],[-107.528497,39.202512],[-107.526697,39.204112],[-107.520397,39.206712],[-107.516797,39.210212],[-107.513097,39.214512],[-107.509997,39.216412],[-107.506497,39.216712],[-107.504197,39.217412],[-107.500999,39.217712]]],[[[-108.740797,37.895412],[-108.678997,37.895212],[-108.624897,37.895312],[-108.587197,37.894812],[-108.500597,37.894212],[-108.455097,37.894212],[-108.437797,37.893912],[-108.390797,37.893512],[-108.366295,37.89381],[-108.357399,37.893612],[-108.2808,37.894413],[-108.2565,37.894211],[-108.257599,37.890411],[-108.2556,37.887913],[-108.253494,37.885914],[-108.250496,37.884514],[-108.247795,37.879513],[-108.237694,37.875912],[-108.236397,37.873314],[-108.235298,37.870312],[-108.233299,37.867413],[-108.231995,37.864914],[-108.230698,37.86161],[-108.229797,37.857811],[-108.229095,37.853413],[-108.226593,37.845612],[-108.226799,37.843613],[-108.225296,37.842312],[-108.219299,37.837914],[-108.217697,37.835712],[-108.212898,37.832211],[-108.211197,37.829613],[-108.2108,37.82571],[-108.209999,37.822212],[-108.208199,37.821114],[-108.204193,37.822212],[-108.199699,37.823914],[-108.197395,37.824211],[-108.194893,37.824112],[-108.191299,37.824814],[-108.188095,37.82571],[-108.183197,37.826611],[-108.1782,37.831112],[-108.175095,37.832512],[-108.169701,37.831211],[-108.166794,37.832512],[-108.164299,37.834713],[-108.160995,37.834213],[-108.156998,37.834312],[-108.152893,37.835011],[-108.1502,37.834614],[-108.149094,37.837112],[-108.145897,37.838211],[-108.143394,37.835411],[-108.140594,37.832813],[-108.139297,37.835812],[-108.137398,37.837711],[-108.135094,37.839611],[-108.130295,37.843113],[-108.126694,37.845413],[-108.125099,37.847813],[-108.124596,37.849911],[-108.124893,37.85181],[-108.122894,37.852211],[-108.120193,37.853512],[-108.115997,37.854012],[-108.112099,37.854912],[-108.108696,37.853813],[-108.105499,37.851711],[-108.098495,37.848312],[-108.095695,37.845112],[-108.095596,37.841213],[-108.092094,37.840412],[-108.086899,37.841614],[-108.084396,37.841911],[-108.081696,37.843712],[-108.079399,37.844414],[-108.075096,37.847012],[-108.071899,37.847912],[-108.068794,37.851112],[-108.065598,37.849411],[-108.063797,37.846512],[-108.060699,37.844711],[-108.058998,37.841614],[-108.055496,37.842911],[-108.052994,37.845413],[-108.051498,37.846512],[-108.047897,37.850311],[-108.044296,37.851112],[-108.040398,37.851513],[-108.036499,37.852211],[-108.031296,37.855114],[-108.028793,37.855412],[-108.0224,37.855812],[-108.019897,37.855511],[-108.011497,37.856712],[-108.008293,37.855213],[-108.006294,37.855511],[-108.001694,37.856812],[-107.999496,37.85601],[-107.992599,37.856514],[-107.9897,37.856411],[-107.987793,37.854111],[-107.987297,37.850914],[-107.985893,37.847813],[-107.984497,37.845711],[-107.982094,37.844013],[-107.979393,37.842411],[-107.976997,37.839012],[-107.974899,37.835613],[-107.972397,37.832912],[-107.967194,37.831913],[-107.963196,37.832611],[-107.958595,37.834614],[-107.9543,37.834713],[-107.9505,37.835411],[-107.948097,37.833511],[-107.946999,37.830013],[-107.944199,37.827614],[-107.939995,37.824814],[-107.938293,37.82291],[-107.932693,37.823513],[-107.924896,37.823414],[-107.921898,37.823711],[-107.918594,37.820313],[-107.914093,37.814713],[-107.908897,37.811012],[-107.906097,37.810612],[-107.904198,37.806812],[-107.900894,37.805813],[-107.897293,37.804012],[-107.892097,37.802212],[-107.889,37.797012],[-107.890793,37.791714],[-107.8899,37.788914],[-107.887695,37.787014],[-107.885498,37.785313],[-107.877594,37.786213],[-107.874298,37.786312],[-107.8722,37.785614],[-107.870094,37.784012],[-107.870094,37.781212],[-107.867393,37.779713],[-107.864494,37.779011],[-107.861198,37.776413],[-107.862797,37.773212],[-107.865297,37.771412],[-107.865597,37.768712],[-107.868097,37.767312],[-107.870197,37.763812],[-107.866397,37.761812],[-107.863197,37.759612],[-107.862497,37.756612],[-107.863897,37.753712],[-107.864897,37.750412],[-107.866297,37.747212],[-107.869897,37.745112],[-107.872797,37.742112],[-107.875197,37.739212],[-107.875297,37.737012],[-107.875097,37.733112],[-107.874597,37.730312],[-107.875597,37.725812],[-107.873397,37.721712],[-107.875097,37.718712],[-107.878597,37.716812],[-107.883397,37.718212],[-107.894897,37.718112],[-107.898397,37.719112],[-107.901997,37.718712],[-107.906297,37.717812],[-107.909797,37.715912],[-107.910997,37.712912],[-107.914197,37.712312],[-107.916397,37.711512],[-107.922097,37.710312],[-107.927297,37.710212],[-107.929897,37.709112],[-107.932097,37.706912],[-107.935897,37.703812],[-107.939297,37.702812],[-107.941897,37.703412],[-107.943997,37.705712],[-107.946897,37.706312],[-107.952597,37.706812],[-107.954897,37.706112],[-107.957697,37.704212],[-107.960197,37.702112],[-107.963997,37.699912],[-107.968097,37.696712],[-107.969097,37.693412],[-107.970297,37.691212],[-107.970597,37.689012],[-107.972097,37.686612],[-107.974497,37.683912],[-107.972197,37.681812],[-107.969397,37.678312],[-107.968497,37.675212],[-107.966697,37.672912],[-107.965697,37.670112],[-107.964397,37.667212],[-107.964297,37.664812],[-107.961697,37.661612],[-107.961397,37.658412],[-107.957797,37.650712],[-107.957697,37.648112],[-107.959497,37.643912],[-107.962397,37.641512],[-107.964497,37.640312],[-107.967397,37.640012],[-107.972597,37.639012],[-107.978697,37.639512],[-108.107997,37.638712],[-108.125597,37.638112],[-108.140297,37.636812],[-108.161297,37.635312],[-108.203397,37.633712],[-108.250597,37.632812],[-108.363397,37.631912],[-108.375597,37.632112],[-108.380297,37.632012],[-108.391797,37.632112],[-108.409297,37.631912],[-108.417197,37.632512],[-108.423997,37.632712],[-108.439297,37.632812],[-108.445597,37.632812],[-108.456797,37.632512],[-108.469197,37.632712],[-108.474497,37.632512],[-108.480697,37.633612],[-108.484497,37.632812],[-108.500697,37.632512],[-108.520397,37.632512],[-108.583397,37.632712],[-108.633597,37.632612],[-108.654797,37.632912],[-108.662597,37.632812],[-108.665997,37.633612],[-108.666097,37.631612],[-108.700497,37.631512],[-108.749797,37.631712],[-108.755697,37.631612],[-108.810297,37.632012],[-108.837397,37.631812],[-108.857097,37.631912],[-108.875697,37.632212],[-108.917097,37.631912],[-108.976697,37.562012],[-108.980397,37.557912],[-109.007797,37.525912],[-109.025297,37.504612],[-109.040197,37.488312],[-109.043495,37.484514],[-109.043098,37.500011],[-109.041893,37.530712],[-109.041794,37.546711],[-109.041901,37.558113],[-109.041794,37.609612],[-109.042099,37.617611],[-109.042,37.621113],[-109.042198,37.667011],[-109.041695,37.712212],[-109.041595,37.740211],[-109.042099,37.750011],[-109.041496,37.800114],[-109.041794,37.835712],[-109.041794,37.873711],[-109.041496,37.881212],[-108.929297,37.881212],[-108.899597,37.881012],[-108.893497,37.880812],[-108.875897,37.881012],[-108.820997,37.880912],[-108.820197,37.883312],[-108.820297,37.886012],[-108.818297,37.888912],[-108.818597,37.892012],[-108.817597,37.894812],[-108.804497,37.895412],[-108.740797,37.895412]]],[[[-107.031799,39.918912],[-107.113697,39.919112],[-107.113497,39.851612],[-107.113597,39.727212],[-107.113397,39.684512],[-107.113497,39.640512],[-107.113797,39.624912],[-107.113597,39.587712],[-107.113997,39.508612],[-107.113597,39.500012],[-107.113697,39.478512],[-107.112897,39.47561],[-107.113697,39.465912],[-107.113497,39.432412],[-107.113597,39.375012],[-107.112997,39.366112],[-107.244497,39.366012],[-107.255397,39.366212],[-107.307197,39.366112],[-107.327897,39.365912],[-107.347297,39.366112],[-107.381397,39.366012],[-107.431297,39.366211],[-107.491493,39.366314],[-107.500595,39.366112],[-107.550995,39.366013],[-107.6073,39.366112],[-107.625595,39.366413],[-107.670494,39.366211],[-108.071797,39.366112],[-108.169997,39.366312],[-108.202197,39.366112],[-108.248797,39.366612],[-108.251097,39.366312],[-108.258397,39.366212],[-108.293097,39.366312],[-108.367697,39.366112],[-108.375597,39.366612],[-108.378897,39.366612],[-108.395997,39.366512],[-108.419497,39.366012],[-108.465997,39.365912],[-108.570197,39.366512],[-108.747397,39.366612],[-108.765997,39.366412],[-108.870297,39.366212],[-108.875297,39.366412],[-108.886797,39.366512],[-108.905297,39.366512],[-108.908397,39.366712],[-108.925297,39.366512],[-108.973697,39.366612],[-108.981097,39.366312],[-109.050797,39.366712],[-109.0513,39.485611],[-109.053398,39.497613],[-109.051399,39.500011],[-109.051193,39.660412],[-108.970297,39.660312],[-108.895797,39.660512],[-108.895697,39.651412],[-108.887097,39.650312],[-108.858093,39.650414],[-108.844197,39.650212],[-108.827997,39.650212],[-108.819097,39.650612],[-108.806397,39.650112],[-108.799197,39.650212],[-108.751097,39.650112],[-108.734697,39.649812],[-108.692797,39.649712],[-108.690297,39.649212],[-108.682597,39.649712],[-108.614697,39.649812],[-108.554597,39.650212],[-108.554697,39.693612],[-108.517297,39.694112],[-108.467897,39.694012],[-108.386897,39.694312],[-108.361097,39.694312],[-108.350597,39.694112],[-108.328197,39.694312],[-108.310297,39.694712],[-108.292597,39.694212],[-108.273197,39.694412],[-108.246397,39.694012],[-108.221397,39.693912],[-108.204797,39.695112],[-108.144297,39.695212],[-108.104997,39.695112],[-108.060297,39.695312],[-108.050597,39.695212],[-108.033697,39.694612],[-108.013397,39.695212],[-108.003197,39.694912],[-108.000597,39.694412],[-107.944797,39.694312],[-107.938497,39.694512],[-107.938697,39.705112],[-107.938497,39.732212],[-107.938697,39.746712],[-107.938597,39.794812],[-107.938497,39.813312],[-107.937997,39.825212],[-107.935697,39.825012],[-107.891397,39.825012],[-107.871697,39.824812],[-107.787197,39.825012],[-107.765497,39.826312],[-107.694197,39.830112],[-107.653597,39.829712],[-107.625597,39.829612],[-107.543997,39.828112],[-107.431797,39.828412],[-107.431597,39.875012],[-107.431697,39.917712],[-107.318797,39.915012],[-107.319297,40.000012],[-107.318197,40.003812],[-107.317097,40.022112],[-107.316997,40.090812],[-107.215497,40.090812],[-107.125597,40.091112],[-107.101797,40.091512],[-107.037399,40.091512],[-107.037292,40.052711],[-107.037399,40.006111],[-107.036194,40.003113],[-107.032097,40.002911],[-107.031998,39.983711],[-107.032394,39.952911],[-107.031799,39.918912]]],[[[-107.568297,38.148112],[-107.562697,38.147112],[-107.500597,38.147012],[-107.383997,38.147212],[-107.167197,38.147212],[-107.125597,38.147112],[-107.112197,38.146912],[-107.056997,38.147112],[-107.051497,38.146912],[-107.047497,38.147112],[-107.001099,38.147112],[-107.001297,38.125011],[-107.0019,38.092812],[-107.001495,38.000011],[-107.000793,37.965912],[-107.001099,37.956212],[-107.004997,37.956612],[-107.006699,37.954113],[-107.006798,37.951111],[-107.007599,37.947811],[-107.0112,37.946911],[-107.017494,37.949013],[-107.019997,37.951611],[-107.024193,37.954212],[-107.027695,37.954212],[-107.030594,37.952911],[-107.032394,37.950512],[-107.036095,37.949413],[-107.039696,37.948811],[-107.042496,37.948711],[-107.045395,37.949814],[-107.048698,37.951714],[-107.052696,37.952911],[-107.055794,37.95211],[-107.057693,37.953411],[-107.059296,37.955612],[-107.059799,37.957813],[-107.061295,37.959511],[-107.063599,37.959614],[-107.0672,37.960712],[-107.068893,37.959213],[-107.070496,37.957012],[-107.0728,37.95491],[-107.075699,37.954014],[-107.079094,37.954311],[-107.083893,37.953712],[-107.086395,37.952713],[-107.0886,37.950413],[-107.092697,37.949413],[-107.096596,37.950413],[-107.101097,37.952713],[-107.102798,37.954712],[-107.104698,37.952011],[-107.105896,37.948212],[-107.107697,37.945313],[-107.111496,37.943012],[-107.122093,37.940712],[-107.125496,37.939213],[-107.128799,37.93811],[-107.1325,37.937611],[-107.138199,37.938812],[-107.138199,37.875011],[-107.138596,37.865913],[-107.137398,37.830013],[-107.137695,37.817913],[-107.1399,37.757214],[-107.140694,37.749714],[-107.143295,37.708012],[-107.145096,37.67551],[-107.124695,37.675114],[-107.123795,37.660812],[-107.123695,37.625011],[-107.124496,37.612114],[-107.125595,37.600513],[-107.1278,37.500011],[-107.1287,37.473614],[-107.128593,37.453613],[-107.128697,37.407124],[-107.128697,37.421912],[-107.166097,37.422912],[-107.355997,37.423112],[-107.376397,37.423612],[-107.482097,37.422712],[-107.481997,37.457612],[-107.482197,37.493912],[-107.481997,37.498912],[-107.481897,37.514912],[-107.482197,37.639512],[-107.482097,37.751412],[-107.480397,37.768512],[-107.475197,37.767912],[-107.471597,37.766812],[-107.468697,37.765712],[-107.467097,37.768212],[-107.465897,37.771512],[-107.463397,37.777312],[-107.461297,37.779112],[-107.458897,37.782612],[-107.459997,37.786812],[-107.459397,37.790312],[-107.459697,37.794312],[-107.461797,37.797712],[-107.465597,37.801212],[-107.468597,37.808612],[-107.475197,37.815512],[-107.478197,37.816412],[-107.481697,37.819012],[-107.484395,37.82151],[-107.487793,37.823112],[-107.4916,37.824211],[-107.495995,37.823212],[-107.499893,37.823311],[-107.507195,37.824711],[-107.509895,37.824711],[-107.514999,37.826214],[-107.516998,37.829014],[-107.516495,37.832912],[-107.517395,37.836811],[-107.519699,37.839813],[-107.521896,37.842113],[-107.521599,37.844311],[-107.520996,37.846111],[-107.519798,37.848312],[-107.518295,37.853111],[-107.517998,37.856411],[-107.519699,37.858612],[-107.521194,37.861813],[-107.5243,37.866314],[-107.526794,37.869614],[-107.529999,37.871613],[-107.532593,37.87281],[-107.5354,37.874413],[-107.535995,37.878914],[-107.532593,37.884811],[-107.533096,37.888611],[-107.530197,37.88961],[-107.527496,37.891113],[-107.525993,37.89521],[-107.522095,37.898811],[-107.520195,37.901413],[-107.5224,37.902714],[-107.524895,37.904911],[-107.528198,37.907013],[-107.528793,37.909313],[-107.529297,37.912312],[-107.529396,37.915112],[-107.531395,37.917313],[-107.534897,37.919613],[-107.536293,37.922314],[-107.535896,37.925411],[-107.538094,37.928711],[-107.538094,37.931812],[-107.537796,37.934311],[-107.5345,37.937214],[-107.532898,37.940212],[-107.533394,37.944412],[-107.537498,37.947514],[-107.543594,37.948612],[-107.5467,37.948914],[-107.550797,37.949814],[-107.553894,37.951611],[-107.557899,37.953312],[-107.563393,37.956711],[-107.565399,37.960911],[-107.568596,37.962513],[-107.570396,37.965611],[-107.574097,37.966912],[-107.580797,37.968312],[-107.584297,37.968012],[-107.587597,37.969412],[-107.586797,37.972712],[-107.584597,37.975912],[-107.585397,37.979112],[-107.587497,37.981812],[-107.589097,37.985512],[-107.589897,37.989312],[-107.591097,37.992212],[-107.588697,37.993012],[-107.586697,37.994412],[-107.586597,37.999112],[-107.584397,38.000012],[-107.581397,38.000312],[-107.579597,38.001212],[-107.577497,38.002712],[-107.574197,38.005412],[-107.566497,38.005212],[-107.563997,38.004112],[-107.561297,38.002512],[-107.559597,38.001012],[-107.555897,37.999412],[-107.549297,37.998712],[-107.546397,38.001012],[-107.542997,38.006012],[-107.538997,38.008512],[-107.537997,38.011912],[-107.539097,38.014912],[-107.539297,38.017312],[-107.537997,38.019612],[-107.537197,38.023412],[-107.539497,38.026512],[-107.537597,38.028612],[-107.536997,38.032112],[-107.533997,38.035012],[-107.531197,38.038212],[-107.528997,38.039512],[-107.525297,38.039612],[-107.522397,38.041812],[-107.521397,38.045012],[-107.522297,38.048212],[-107.521697,38.050412],[-107.521497,38.053012],[-107.522397,38.056412],[-107.518997,38.057912],[-107.515497,38.058212],[-107.511697,38.060212],[-107.512797,38.062712],[-107.514997,38.066212],[-107.516497,38.069212],[-107.519997,38.070412],[-107.523197,38.072212],[-107.525097,38.074312],[-107.527297,38.075912],[-107.530097,38.077112],[-107.533197,38.079512],[-107.536697,38.079412],[-107.543497,38.080212],[-107.550097,38.078512],[-107.553597,38.079612],[-107.555897,38.082512],[-107.557497,38.085512],[-107.559697,38.087512],[-107.560297,38.089512],[-107.560497,38.092412],[-107.562497,38.094912],[-107.564297,38.096712],[-107.564997,38.099012],[-107.562797,38.101012],[-107.562397,38.104112],[-107.561397,38.108412],[-107.561197,38.111812],[-107.562297,38.114712],[-107.563897,38.118212],[-107.563497,38.123012],[-107.564697,38.127612],[-107.568197,38.130812],[-107.569597,38.133812],[-107.573397,38.136812],[-107.572297,38.140712],[-107.571197,38.143512],[-107.568297,38.148112]]],[[[-107.750597,37.640312],[-107.743197,37.639512],[-107.691697,37.639612],[-107.482197,37.639512],[-107.481897,37.514912],[-107.481997,37.498912],[-107.482197,37.493912],[-107.481997,37.457612],[-107.482097,37.422712],[-107.482197,37.376212],[-107.481997,37.371312],[-107.481997,37.362112],[-107.482097,37.337112],[-107.482297,37.328712],[-107.482297,37.323612],[-107.482097,37.321712],[-107.482094,37.290012],[-107.4823,37.250214],[-107.482094,37.214413],[-107.482094,37.124714],[-107.4814,37.093811],[-107.481697,37.000011],[-108.000595,37.000011],[-108.031998,36.999714],[-108.125298,36.999611],[-108.143295,36.999413],[-108.196793,36.999313],[-108.241096,36.999012],[-108.25,36.999313],[-108.267899,36.999611],[-108.352394,36.999413],[-108.375595,36.999512],[-108.380096,37.000511],[-108.379593,37.004013],[-108.377098,37.006413],[-108.376999,37.009312],[-108.373695,37.018414],[-108.372299,37.020313],[-108.372795,37.025211],[-108.371796,37.028912],[-108.367699,37.028614],[-108.359596,37.026413],[-108.355995,37.026413],[-108.355293,37.030712],[-108.353394,37.033112],[-108.354897,37.035713],[-108.353897,37.038612],[-108.350395,37.041012],[-108.349396,37.042912],[-108.348,37.04491],[-108.346695,37.047512],[-108.343498,37.049011],[-108.341095,37.051014],[-108.3377,37.052414],[-108.335396,37.053711],[-108.334496,37.056412],[-108.334198,37.060413],[-108.334198,37.064213],[-108.333,37.066914],[-108.3293,37.068413],[-108.327797,37.071114],[-108.328598,37.072811],[-108.329697,37.074512],[-108.326698,37.076012],[-108.326195,37.078911],[-108.324493,37.081013],[-108.324493,37.084213],[-108.323196,37.087414],[-108.322594,37.090012],[-108.322197,37.092812],[-108.3209,37.096012],[-108.318398,37.097313],[-108.316795,37.099312],[-108.315994,37.102814],[-108.313995,37.104111],[-108.311798,37.104412],[-108.310097,37.10601],[-108.310898,37.108612],[-108.309898,37.111813],[-108.311493,37.114914],[-108.311096,37.117813],[-108.3097,37.119411],[-108.310295,37.121513],[-108.310394,37.12421],[-108.3097,37.126713],[-108.309593,37.129711],[-108.3069,37.132313],[-108.304596,37.135014],[-108.301498,37.137314],[-108.293297,37.144913],[-108.290695,37.146011],[-108.290993,37.149311],[-108.290199,37.153214],[-108.293098,37.156612],[-108.295097,37.160511],[-108.294296,37.165112],[-108.296097,37.167614],[-108.297195,37.171013],[-108.295898,37.174511],[-108.2948,37.17971],[-108.295799,37.188614],[-108.292999,37.194313],[-108.292793,37.196812],[-108.293297,37.202911],[-108.297394,37.209412],[-108.295998,37.214413],[-108.310699,37.214611],[-108.3004,37.222813],[-108.285294,37.226414],[-108.281797,37.228312],[-108.279297,37.227912],[-108.276197,37.229212],[-108.272197,37.229212],[-108.269697,37.229812],[-108.267297,37.233012],[-108.264297,37.234212],[-108.261797,37.235612],[-108.259997,37.238912],[-108.256497,37.242312],[-108.253597,37.244812],[-108.250497,37.246912],[-108.248597,37.249612],[-108.246797,37.253112],[-108.246097,37.255712],[-108.242897,37.260612],[-108.239797,37.262112],[-108.237797,37.265512],[-108.237397,37.269112],[-108.236197,37.271712],[-108.233097,37.275612],[-108.230297,37.276612],[-108.227697,37.277912],[-108.227497,37.282012],[-108.226097,37.285312],[-108.223697,37.287012],[-108.220297,37.287712],[-108.219397,37.291212],[-108.219097,37.294212],[-108.217797,37.297112],[-108.214697,37.298012],[-108.212597,37.300612],[-108.213997,37.303912],[-108.216397,37.306712],[-108.216597,37.309412],[-108.212897,37.315912],[-108.211197,37.320412],[-108.208997,37.322712],[-108.205597,37.324212],[-108.203697,37.326012],[-108.204597,37.328512],[-108.206497,37.331712],[-108.207697,37.334412],[-108.205997,37.338412],[-108.205097,37.341112],[-108.204697,37.343812],[-108.203597,37.346712],[-108.201297,37.349212],[-108.198697,37.351112],[-108.197697,37.354512],[-108.195697,37.356212],[-108.192697,37.359112],[-108.190997,37.359912],[-108.188397,37.360312],[-108.183197,37.363112],[-108.180097,37.363812],[-108.172797,37.366312],[-108.169497,37.366112],[-108.166897,37.363712],[-108.163597,37.362312],[-108.160997,37.362512],[-108.158497,37.363712],[-108.154597,37.363112],[-108.150397,37.363412],[-108.147597,37.365112],[-108.145797,37.367212],[-108.141897,37.370112],[-108.140797,37.372312],[-108.133397,37.374112],[-108.125597,37.374712],[-108.120797,37.374812],[-108.117097,37.377312],[-108.114097,37.380012],[-108.111097,37.381012],[-108.109097,37.381412],[-108.105997,37.382412],[-108.106097,37.385312],[-108.105797,37.388612],[-108.107097,37.391412],[-108.107297,37.394812],[-108.105297,37.404912],[-108.103497,37.408412],[-108.101097,37.410812],[-108.099497,37.413012],[-108.098597,37.416212],[-108.096597,37.418112],[-108.094297,37.419512],[-108.091297,37.420612],[-108.089097,37.422212],[-108.086197,37.427712],[-108.082397,37.428212],[-108.079997,37.429212],[-108.080697,37.432212],[-108.080097,37.434712],[-108.078397,37.438212],[-108.075697,37.438912],[-108.073097,37.438912],[-108.070897,37.438312],[-108.068397,37.438012],[-108.065397,37.438312],[-108.062197,37.437612],[-108.058997,37.437612],[-108.056497,37.437912],[-108.052497,37.438112],[-108.049697,37.441112],[-108.046597,37.442712],[-108.043797,37.443812],[-108.042297,37.448312],[-108.038797,37.451712],[-108.038997,37.455112],[-108.036897,37.459312],[-108.034597,37.461412],[-108.033497,37.464712],[-108.034597,37.467612],[-108.035797,37.470012],[-108.035797,37.473112],[-108.033297,37.479612],[-108.033697,37.483912],[-108.035897,37.485712],[-108.036497,37.488012],[-108.035897,37.492412],[-108.035097,37.496012],[-108.036397,37.500012],[-108.037797,37.503312],[-108.036497,37.506212],[-108.034397,37.508112],[-108.032397,37.509612],[-108.034297,37.512712],[-108.033797,37.515912],[-108.032597,37.518412],[-108.034197,37.522012],[-108.033797,37.526212],[-108.034497,37.529612],[-108.034097,37.532912],[-108.030297,37.535312],[-108.026997,37.538212],[-108.025497,37.540512],[-108.024197,37.543612],[-108.023497,37.546512],[-108.021697,37.548912],[-108.021397,37.552012],[-108.020297,37.554512],[-108.020597,37.556412],[-108.019997,37.558012],[-108.021297,37.559912],[-108.021597,37.562912],[-108.019897,37.565212],[-108.018997,37.568312],[-108.020297,37.572512],[-108.019497,37.575612],[-108.020197,37.582412],[-108.019997,37.585412],[-108.022397,37.590912],[-108.019297,37.591612],[-108.016697,37.593412],[-108.015597,37.595912],[-108.013897,37.597312],[-108.014897,37.600512],[-108.013497,37.604212],[-108.010797,37.605412],[-108.008197,37.605712],[-108.005497,37.606612],[-108.003697,37.609012],[-108.001797,37.610912],[-108.001197,37.613512],[-107.998297,37.614312],[-107.994997,37.615512],[-107.993297,37.619012],[-107.991397,37.620812],[-107.987997,37.624912],[-107.985797,37.625812],[-107.983197,37.627712],[-107.978497,37.629112],[-107.974997,37.629612],[-107.974997,37.632512],[-107.973397,37.635912],[-107.972597,37.639012],[-107.967397,37.640012],[-107.964497,37.640312],[-107.961697,37.639612],[-107.910197,37.639912],[-107.828497,37.640012],[-107.750597,37.640312]]],[[[-108.908397,39.366712],[-108.905297,39.366512],[-108.886797,39.366512],[-108.875297,39.366412],[-108.870297,39.366212],[-108.765997,39.366412],[-108.747397,39.366612],[-108.570197,39.366512],[-108.465997,39.365912],[-108.419497,39.366012],[-108.395997,39.366512],[-108.378897,39.366612],[-108.375597,39.366612],[-108.367697,39.366112],[-108.293097,39.366312],[-108.258397,39.366212],[-108.251097,39.366312],[-108.248797,39.366612],[-108.202197,39.366112],[-108.169997,39.366312],[-108.071797,39.366112],[-107.670494,39.366211],[-107.625595,39.366413],[-107.6073,39.366112],[-107.550995,39.366013],[-107.500595,39.366112],[-107.491493,39.366314],[-107.431297,39.366211],[-107.429199,39.363411],[-107.428894,39.36021],[-107.428894,39.357212],[-107.429893,39.35461],[-107.430595,39.348713],[-107.433495,39.347012],[-107.4366,39.34621],[-107.438797,39.341911],[-107.443298,39.338413],[-107.4459,39.335114],[-107.449997,39.332413],[-107.4515,39.32991],[-107.454498,39.329113],[-107.457497,39.328911],[-107.460396,39.328011],[-107.462395,39.326714],[-107.463799,39.323914],[-107.465294,39.321613],[-107.464096,39.319511],[-107.463493,39.317013],[-107.464897,39.314613],[-107.463196,39.313911],[-107.461098,39.312511],[-107.459496,39.310112],[-107.454498,39.306412],[-107.4506,39.304611],[-107.447899,39.305813],[-107.444695,39.308514],[-107.439499,39.308613],[-107.437897,39.306614],[-107.438896,39.30331],[-107.437393,39.300011],[-107.434196,39.298714],[-107.430794,39.298912],[-107.422394,39.297112],[-107.419098,39.295311],[-107.415993,39.294113],[-107.412994,39.292412],[-107.409195,39.293713],[-107.406197,39.293011],[-107.402298,39.293411],[-107.397995,39.294411],[-107.397293,39.291512],[-107.396194,39.289814],[-107.396393,39.287411],[-107.396797,39.285313],[-107.3965,39.283211],[-107.393997,39.280712],[-107.392097,39.279213],[-107.389694,39.278812],[-107.387199,39.277813],[-107.382797,39.275513],[-107.379097,39.275211],[-107.377899,39.271313],[-107.379997,39.268612],[-107.3834,39.267712],[-107.387093,39.265812],[-107.389694,39.264713],[-107.391396,39.263611],[-107.392296,39.260014],[-107.394295,39.257011],[-107.395699,39.255413],[-107.398293,39.253613],[-107.400696,39.253113],[-107.403397,39.253811],[-107.407593,39.253811],[-107.411697,39.254513],[-107.415199,39.255611],[-107.421494,39.255711],[-107.424995,39.257313],[-107.429695,39.256813],[-107.429794,39.251114],[-107.430397,39.248512],[-107.429893,39.244713],[-107.430496,39.24081],[-107.434898,39.239311],[-107.439896,39.236813],[-107.442795,39.236214],[-107.444397,39.234314],[-107.446396,39.233212],[-107.448997,39.232513],[-107.450897,39.231113],[-107.453598,39.230213],[-107.4562,39.229813],[-107.459099,39.22961],[-107.4608,39.230213],[-107.462296,39.229214],[-107.463898,39.228512],[-107.467598,39.228611],[-107.475494,39.22961],[-107.4785,39.23241],[-107.481697,39.234711],[-107.484397,39.234711],[-107.485397,39.231512],[-107.486097,39.228512],[-107.487297,39.226311],[-107.492997,39.220912],[-107.494397,39.218812],[-107.496193,39.217911],[-107.498597,39.217612],[-107.500999,39.217712],[-107.504197,39.217412],[-107.506497,39.216712],[-107.509997,39.216412],[-107.513097,39.214512],[-107.516797,39.210212],[-107.520397,39.206712],[-107.526697,39.204112],[-107.528497,39.202512],[-107.527097,39.199912],[-107.531797,39.199012],[-107.534997,39.198612],[-107.538297,39.197612],[-107.541897,39.196012],[-107.543397,39.194212],[-107.542897,39.191912],[-107.543097,39.189112],[-107.543597,39.186312],[-107.542097,39.184312],[-107.542797,39.182312],[-107.545397,39.181512],[-107.548697,39.181212],[-107.551897,39.179912],[-107.556297,39.178612],[-107.560697,39.178512],[-107.563297,39.179912],[-107.567097,39.181212],[-107.569497,39.180612],[-107.570397,39.178612],[-107.572997,39.176412],[-107.576897,39.175012],[-107.580897,39.174612],[-107.583997,39.173212],[-107.585797,39.171112],[-107.590597,39.167212],[-107.593597,39.165212],[-107.599197,39.164312],[-107.603797,39.162912],[-107.606897,39.161712],[-107.609197,39.159412],[-107.610997,39.156712],[-107.613697,39.155012],[-107.616797,39.155312],[-107.619597,39.153812],[-107.621997,39.151012],[-107.628197,39.148612],[-107.630097,39.146512],[-107.630597,39.144712],[-107.632297,39.141812],[-107.637197,39.141612],[-107.640597,39.139412],[-107.645797,39.134112],[-107.647597,39.131712],[-107.651297,39.130612],[-107.652897,39.128412],[-107.653597,39.126612],[-107.653497,39.124912],[-107.655797,39.123012],[-107.657997,39.120612],[-107.660597,39.118412],[-107.662397,39.115712],[-107.660397,39.112612],[-107.661697,39.111012],[-107.663897,39.109812],[-107.666197,39.109112],[-107.669197,39.108712],[-107.672397,39.106112],[-107.674197,39.101212],[-107.676897,39.100412],[-107.680497,39.100012],[-107.681797,39.096912],[-107.682997,39.092812],[-107.685097,39.091012],[-107.687197,39.088312],[-107.689697,39.087312],[-107.693497,39.087212],[-107.694797,39.085012],[-107.700997,39.084112],[-107.703997,39.084912],[-107.709297,39.083012],[-107.710597,39.081512],[-107.712997,39.080012],[-107.713697,39.078012],[-107.715197,39.075812],[-107.716797,39.074212],[-107.719597,39.070912],[-107.721597,39.068912],[-107.722097,39.066012],[-107.726197,39.065712],[-107.729997,39.066012],[-107.732697,39.063712],[-107.734797,39.066012],[-107.738097,39.065712],[-107.742097,39.063912],[-107.744397,39.061312],[-107.743297,39.058312],[-107.745897,39.057312],[-107.747997,39.055612],[-107.751397,39.054212],[-107.755497,39.053512],[-107.757297,39.049312],[-107.759897,39.047812],[-107.763197,39.046712],[-107.766397,39.044112],[-107.770897,39.044012],[-107.775097,39.047412],[-107.777997,39.050012],[-107.780097,39.052412],[-107.787397,39.056212],[-107.790497,39.058612],[-107.793097,39.061112],[-107.798897,39.063012],[-107.802097,39.064512],[-107.814797,39.067712],[-107.819497,39.070512],[-107.821897,39.070512],[-107.828697,39.072112],[-107.838197,39.076512],[-107.840897,39.076912],[-107.844497,39.077112],[-107.848197,39.078012],[-107.852197,39.078312],[-107.855397,39.077012],[-107.858597,39.079812],[-107.866497,39.075612],[-107.872897,39.073712],[-107.874997,39.071612],[-107.880297,39.071012],[-107.884897,39.068912],[-107.886997,39.067512],[-107.894297,39.066012],[-107.897797,39.066112],[-107.901197,39.064912],[-107.906897,39.060712],[-107.909397,39.061112],[-107.911597,39.062612],[-107.913997,39.062812],[-107.918197,39.063812],[-107.923397,39.063412],[-107.930297,39.062412],[-107.937797,39.061912],[-107.942097,39.060812],[-107.946097,39.060612],[-107.953697,39.059712],[-107.960197,39.060112],[-107.963397,39.059812],[-107.972597,39.061212],[-107.979697,39.060312],[-107.982997,39.059012],[-107.987197,39.052912],[-107.990997,39.050412],[-107.995897,39.048212],[-108.000997,39.044812],[-108.002597,39.043012],[-108.005197,39.041512],[-108.009697,39.039612],[-108.016597,39.035612],[-108.020597,39.033112],[-108.023097,39.030812],[-108.026797,39.029812],[-108.031297,39.027912],[-108.032697,39.025112],[-108.034597,39.022612],[-108.035897,39.018812],[-108.038997,39.015512],[-108.042897,39.013812],[-108.045097,39.012212],[-108.047797,39.012212],[-108.050397,39.014912],[-108.054097,39.013612],[-108.055697,39.011112],[-108.058697,39.007712],[-108.061497,39.005312],[-108.063797,39.004612],[-108.066897,39.000312],[-108.070997,38.996112],[-108.075997,38.992712],[-108.078897,38.991612],[-108.081997,38.988912],[-108.083697,38.986712],[-108.088297,38.982112],[-108.091397,38.980912],[-108.094197,38.979512],[-108.092297,38.976512],[-108.087097,38.966612],[-108.087997,38.962912],[-108.090697,38.959812],[-108.093497,38.957612],[-108.102397,38.948912],[-108.108497,38.940212],[-108.111397,38.937212],[-108.113897,38.935112],[-108.118197,38.930412],[-108.120897,38.927112],[-108.123097,38.925612],[-108.126397,38.924012],[-108.128797,38.923012],[-108.131097,38.922412],[-108.136497,38.925612],[-108.139797,38.925012],[-108.140797,38.921112],[-108.143797,38.919012],[-108.144397,38.915812],[-108.141597,38.911212],[-108.140797,38.907312],[-108.143197,38.906912],[-108.146297,38.907412],[-108.149097,38.905312],[-108.151397,38.902112],[-108.153697,38.901212],[-108.156097,38.901312],[-108.158697,38.901012],[-108.165097,38.902312],[-108.168397,38.900912],[-108.170697,38.898512],[-108.174397,38.898012],[-108.176497,38.896312],[-108.185597,38.892412],[-108.204197,38.886212],[-108.230497,38.877712],[-108.250597,38.871412],[-108.322399,38.847692],[-108.3722,38.831413],[-108.378494,38.829514],[-108.378799,38.822014],[-108.378998,38.785912],[-108.378825,38.755077],[-108.378997,38.755111],[-108.378797,38.750012],[-108.378697,38.668812],[-108.378697,38.502212],[-108.380097,38.500012],[-108.758197,38.500012],[-108.764097,38.501412],[-108.781497,38.500012],[-109.000697,38.500012],[-109.059998,38.500812],[-109.060196,38.532211],[-109.060295,38.599312],[-109.059799,38.648312],[-109.059898,38.673111],[-109.059494,38.719913],[-109.059196,38.735813],[-109.057396,38.795414],[-109.055794,38.830914],[-109.054199,38.875011],[-109.053993,38.898212],[-109.053795,38.904911],[-109.053795,38.923012],[-109.053596,38.935013],[-109.0532,38.942711],[-109.052795,38.976513],[-109.0522,39.007412],[-109.052399,39.015312],[-109.052193,39.028111],[-109.051498,39.12561],[-109.050797,39.366712],[-108.981097,39.366312],[-108.973697,39.366612],[-108.925297,39.366512],[-108.908397,39.366712]]],[[[-107.367195,41.003113],[-107.318497,41.002911],[-107.317894,40.999313],[-107.316697,40.885812],[-107.315597,40.812012],[-107.313397,40.686812],[-107.314297,40.625012],[-107.314197,40.600912],[-107.319297,40.600312],[-107.371497,40.600212],[-107.371297,40.542412],[-107.414097,40.542312],[-107.428797,40.541612],[-107.428397,40.480412],[-107.428497,40.469712],[-107.429097,40.444512],[-107.429597,40.432812],[-107.430997,40.384612],[-107.431497,40.355312],[-107.432097,40.335012],[-107.442597,40.334712],[-107.442497,40.307312],[-107.440297,40.255212],[-107.439497,40.242912],[-107.439397,40.223412],[-107.439397,40.220412],[-107.447897,40.220512],[-107.455197,40.220312],[-107.490997,40.220012],[-107.495597,40.220012],[-107.500597,40.220512],[-107.506697,40.220512],[-107.524997,40.221212],[-107.561597,40.222212],[-107.603297,40.223112],[-107.612097,40.223612],[-107.625597,40.224112],[-107.644197,40.224212],[-107.647497,40.224212],[-107.653897,40.223912],[-107.656197,40.223412],[-107.667997,40.223412],[-107.679297,40.223612],[-107.719397,40.223612],[-107.745397,40.223412],[-107.750597,40.223812],[-107.753597,40.223812],[-107.763197,40.223212],[-107.767397,40.222612],[-107.780197,40.222512],[-107.788497,40.222712],[-107.808897,40.222712],[-107.835997,40.222412],[-107.840697,40.222512],[-107.860097,40.222312],[-107.875597,40.222412],[-107.919997,40.222112],[-107.991297,40.222412],[-107.996197,40.222212],[-108.000597,40.222312],[-108.011897,40.222112],[-108.094597,40.221712],[-108.326797,40.221912],[-108.500697,40.222412],[-108.625697,40.222412],[-108.751997,40.222812],[-108.875697,40.222812],[-108.999997,40.222512],[-109.017197,40.222712],[-109.050293,40.222612],[-109.050896,40.267444],[-109.050896,40.444412],[-109.050301,40.495113],[-109.050697,40.500011],[-109.050095,40.519611],[-109.050095,40.540413],[-109.048798,40.578213],[-109.047997,40.619213],[-109.048294,40.654411],[-109.048442,40.660527],[-109.048996,40.684811],[-109.049095,40.714512],[-109.048698,40.769314],[-109.0485,40.832912],[-109.048798,40.842113],[-109.048897,40.862011],[-109.048698,40.865711],[-109.049095,40.874111],[-109.049896,40.994911],[-109.050095,40.999912],[-109.031296,41.000511],[-108.983093,41.000511],[-108.884094,41.000111],[-108.875694,41.000214],[-108.853798,41.000011],[-108.801895,41.000214],[-108.631096,41.000111],[-108.625999,40.999912],[-108.561897,40.999912],[-108.557693,40.999611],[-108.535698,40.999714],[-108.526299,40.999611],[-108.520096,40.999912],[-108.500694,41.000111],[-108.326195,41.000011],[-108.257797,41.000111],[-108.246895,41.000313],[-108.222397,41.000412],[-108.181595,41.000412],[-108.1259,41.001312],[-108.111,41.001312],[-108.046494,41.002113],[-108.025398,41.002113],[-108.000595,41.001812],[-107.970299,41.00201],[-107.919197,41.00201],[-107.7603,41.001911],[-107.723999,41.002113],[-107.500595,41.002312],[-107.4786,41.002712],[-107.449699,41.002712],[-107.367195,41.003113]]],[[[-107.972597,37.639012],[-107.973397,37.635912],[-107.974997,37.632512],[-107.974997,37.629612],[-107.978497,37.629112],[-107.983197,37.627712],[-107.985797,37.625812],[-107.987997,37.624912],[-107.991397,37.620812],[-107.993297,37.619012],[-107.994997,37.615512],[-107.998297,37.614312],[-108.001197,37.613512],[-108.001797,37.610912],[-108.003697,37.609012],[-108.005497,37.606612],[-108.008197,37.605712],[-108.010797,37.605412],[-108.013497,37.604212],[-108.014897,37.600512],[-108.013897,37.597312],[-108.015597,37.595912],[-108.016697,37.593412],[-108.019297,37.591612],[-108.022397,37.590912],[-108.019997,37.585412],[-108.020197,37.582412],[-108.019497,37.575612],[-108.020297,37.572512],[-108.018997,37.568312],[-108.019897,37.565212],[-108.021597,37.562912],[-108.021297,37.559912],[-108.019997,37.558012],[-108.020597,37.556412],[-108.020297,37.554512],[-108.021397,37.552012],[-108.021697,37.548912],[-108.023497,37.546512],[-108.024197,37.543612],[-108.025497,37.540512],[-108.026997,37.538212],[-108.030297,37.535312],[-108.034097,37.532912],[-108.034497,37.529612],[-108.033797,37.526212],[-108.034197,37.522012],[-108.032597,37.518412],[-108.033797,37.515912],[-108.034297,37.512712],[-108.032397,37.509612],[-108.034397,37.508112],[-108.036497,37.506212],[-108.037797,37.503312],[-108.036397,37.500012],[-108.035097,37.496012],[-108.035897,37.492412],[-108.036497,37.488012],[-108.035897,37.485712],[-108.033697,37.483912],[-108.033297,37.479612],[-108.035797,37.473112],[-108.035797,37.470012],[-108.034597,37.467612],[-108.033497,37.464712],[-108.034597,37.461412],[-108.036897,37.459312],[-108.038997,37.455112],[-108.038797,37.451712],[-108.042297,37.448312],[-108.043797,37.443812],[-108.046597,37.442712],[-108.049697,37.441112],[-108.052497,37.438112],[-108.056497,37.437912],[-108.058997,37.437612],[-108.062197,37.437612],[-108.065397,37.438312],[-108.068397,37.438012],[-108.070897,37.438312],[-108.073097,37.438912],[-108.075697,37.438912],[-108.078397,37.438212],[-108.080097,37.434712],[-108.080697,37.432212],[-108.079997,37.429212],[-108.082397,37.428212],[-108.086197,37.427712],[-108.089097,37.422212],[-108.091297,37.420612],[-108.094297,37.419512],[-108.096597,37.418112],[-108.098597,37.416212],[-108.099497,37.413012],[-108.101097,37.410812],[-108.103497,37.408412],[-108.105297,37.404912],[-108.107297,37.394812],[-108.107097,37.391412],[-108.105797,37.388612],[-108.106097,37.385312],[-108.105997,37.382412],[-108.109097,37.381412],[-108.111097,37.381012],[-108.114097,37.380012],[-108.117097,37.377312],[-108.120797,37.374812],[-108.125597,37.374712],[-108.133397,37.374112],[-108.140797,37.372312],[-108.141897,37.370112],[-108.145797,37.367212],[-108.147597,37.365112],[-108.150397,37.363412],[-108.154597,37.363112],[-108.158497,37.363712],[-108.160997,37.362512],[-108.163597,37.362312],[-108.166897,37.363712],[-108.169497,37.366112],[-108.172797,37.366312],[-108.180097,37.363812],[-108.183197,37.363112],[-108.188397,37.360312],[-108.190997,37.359912],[-108.192697,37.359112],[-108.195697,37.356212],[-108.197697,37.354512],[-108.198697,37.351112],[-108.201297,37.349212],[-108.203597,37.346712],[-108.204697,37.343812],[-108.205097,37.341112],[-108.205997,37.338412],[-108.207697,37.334412],[-108.206497,37.331712],[-108.204597,37.328512],[-108.203697,37.326012],[-108.205597,37.324212],[-108.208997,37.322712],[-108.211197,37.320412],[-108.212897,37.315912],[-108.216597,37.309412],[-108.216397,37.306712],[-108.213997,37.303912],[-108.212597,37.300612],[-108.214697,37.298012],[-108.217797,37.297112],[-108.219097,37.294212],[-108.219397,37.291212],[-108.220297,37.287712],[-108.223697,37.287012],[-108.226097,37.285312],[-108.227497,37.282012],[-108.227697,37.277912],[-108.230297,37.276612],[-108.233097,37.275612],[-108.236197,37.271712],[-108.237397,37.269112],[-108.237797,37.265512],[-108.239797,37.262112],[-108.242897,37.260612],[-108.246097,37.255712],[-108.246797,37.253112],[-108.248597,37.249612],[-108.250497,37.246912],[-108.253597,37.244812],[-108.256497,37.242312],[-108.259997,37.238912],[-108.261797,37.235612],[-108.264297,37.234212],[-108.267297,37.233012],[-108.269697,37.229812],[-108.272197,37.229212],[-108.276197,37.229212],[-108.279297,37.227912],[-108.281797,37.228312],[-108.285294,37.226414],[-108.3004,37.222813],[-108.310699,37.214611],[-108.295998,37.214413],[-108.297394,37.209412],[-108.293297,37.202911],[-108.292793,37.196812],[-108.292999,37.194313],[-108.295799,37.188614],[-108.2948,37.17971],[-108.295898,37.174511],[-108.297195,37.171013],[-108.296097,37.167614],[-108.294296,37.165112],[-108.295097,37.160511],[-108.293098,37.156612],[-108.290199,37.153214],[-108.290993,37.149311],[-108.290695,37.146011],[-108.293297,37.144913],[-108.301498,37.137314],[-108.304596,37.135014],[-108.3069,37.132313],[-108.309593,37.129711],[-108.3097,37.126713],[-108.310394,37.12421],[-108.310295,37.121513],[-108.3097,37.119411],[-108.311096,37.117813],[-108.311493,37.114914],[-108.309898,37.111813],[-108.310898,37.108612],[-108.310097,37.10601],[-108.311798,37.104412],[-108.313995,37.104111],[-108.315994,37.102814],[-108.316795,37.099312],[-108.318398,37.097313],[-108.3209,37.096012],[-108.322197,37.092812],[-108.322594,37.090012],[-108.323196,37.087414],[-108.324493,37.084213],[-108.324493,37.081013],[-108.326195,37.078911],[-108.326698,37.076012],[-108.329697,37.074512],[-108.328598,37.072811],[-108.327797,37.071114],[-108.3293,37.068413],[-108.333,37.066914],[-108.334198,37.064213],[-108.334198,37.060413],[-108.334496,37.056412],[-108.335396,37.053711],[-108.3377,37.052414],[-108.341095,37.051014],[-108.343498,37.049011],[-108.346695,37.047512],[-108.348,37.04491],[-108.349396,37.042912],[-108.350395,37.041012],[-108.353897,37.038612],[-108.354897,37.035713],[-108.353394,37.033112],[-108.355293,37.030712],[-108.355995,37.026413],[-108.359596,37.026413],[-108.367699,37.028614],[-108.371796,37.028912],[-108.372795,37.025211],[-108.372299,37.020313],[-108.373695,37.018414],[-108.376999,37.009312],[-108.377098,37.006413],[-108.379593,37.004013],[-108.380096,37.000511],[-108.382401,36.999512],[-108.4468,36.999313],[-108.557098,36.999313],[-108.7668,36.998814],[-108.826393,36.999012],[-108.876297,36.998814],[-109.005394,36.998913],[-109.033897,36.999012],[-109.045296,36.99921],[-109.045494,37.003311],[-109.045197,37.022614],[-109.044998,37.086014],[-109.045197,37.096611],[-109.045296,37.125011],[-109.045998,37.178413],[-109.045998,37.200813],[-109.045494,37.211514],[-109.045593,37.239914],[-109.045998,37.267311],[-109.045799,37.375011],[-109.043495,37.484514],[-109.040197,37.488312],[-109.025297,37.504612],[-109.007797,37.525912],[-108.980397,37.557912],[-108.976697,37.562012],[-108.917097,37.631912],[-108.875697,37.632212],[-108.857097,37.631912],[-108.837397,37.631812],[-108.810297,37.632012],[-108.755697,37.631612],[-108.749797,37.631712],[-108.700497,37.631512],[-108.666097,37.631612],[-108.665997,37.633612],[-108.662597,37.632812],[-108.654797,37.632912],[-108.633597,37.632612],[-108.583397,37.632712],[-108.520397,37.632512],[-108.500697,37.632512],[-108.484497,37.632812],[-108.480697,37.633612],[-108.474497,37.632512],[-108.469197,37.632712],[-108.456797,37.632512],[-108.445597,37.632812],[-108.439297,37.632812],[-108.423997,37.632712],[-108.417197,37.632512],[-108.409297,37.631912],[-108.391797,37.632112],[-108.380297,37.632012],[-108.375597,37.632112],[-108.363397,37.631912],[-108.250597,37.632812],[-108.203397,37.633712],[-108.161297,37.635312],[-108.140297,37.636812],[-108.125597,37.638112],[-108.107997,37.638712],[-107.978697,37.639512],[-107.972597,37.639012]]],[[[-107.500597,38.669412],[-107.500597,38.443712],[-107.500397,38.426212],[-107.500297,38.375012],[-107.500097,38.365012],[-107.499997,38.310312],[-107.500297,38.302012],[-107.632195,38.30191],[-107.634995,38.303211],[-107.634237,38.305255],[-107.6334,38.30751],[-107.633797,38.31031],[-107.635399,38.312611],[-107.636299,38.316414],[-107.634697,38.319412],[-107.631599,38.326214],[-107.634796,38.330811],[-107.641098,38.332111],[-107.718597,38.332111],[-107.727699,38.332314],[-107.854797,38.332212],[-107.867197,38.332312],[-107.875597,38.332812],[-107.880297,38.332812],[-108.000597,38.332512],[-108.011697,38.331912],[-108.085797,38.332012],[-108.112897,38.331912],[-108.132397,38.331612],[-108.131797,38.321812],[-108.124597,38.320912],[-108.123297,38.313612],[-108.104797,38.313712],[-108.104197,38.284212],[-108.086397,38.284312],[-108.087197,38.262512],[-108.086597,38.255212],[-108.011497,38.255212],[-108.011497,38.249112],[-108.000497,38.248312],[-107.985097,38.248412],[-107.984097,38.244312],[-107.984197,38.233912],[-107.967697,38.234012],[-107.965597,38.233912],[-107.965397,38.226512],[-107.947097,38.226512],[-107.946997,38.218912],[-107.938597,38.219012],[-107.937697,38.213612],[-107.938097,38.174212],[-107.947297,38.173612],[-107.947497,38.166912],[-107.946997,38.153212],[-107.949597,38.152512],[-107.965797,38.152312],[-107.984997,38.152212],[-108.011397,38.152712],[-108.027897,38.152612],[-108.038897,38.152712],[-108.113097,38.152212],[-108.125797,38.152712],[-108.136097,38.152712],[-108.170597,38.152312],[-108.189397,38.152312],[-108.227597,38.152412],[-108.233797,38.152912],[-108.237297,38.152512],[-108.260897,38.152712],[-108.286297,38.152512],[-108.325097,38.152512],[-108.375597,38.152812],[-108.414797,38.153312],[-108.522497,38.153312],[-108.539597,38.152612],[-108.580997,38.152812],[-108.625697,38.153312],[-108.631897,38.153112],[-108.686797,38.153012],[-108.705097,38.153212],[-108.741497,38.153112],[-108.750697,38.153412],[-108.778297,38.153312],[-108.821497,38.153612],[-108.836297,38.153912],[-108.858997,38.153812],[-108.875697,38.154112],[-108.880897,38.154012],[-108.900197,38.154812],[-108.911297,38.153312],[-108.942097,38.153712],[-108.949397,38.153512],[-108.980497,38.153612],[-108.988497,38.153412],[-108.999597,38.153512],[-109.042097,38.153012],[-109.041794,38.164711],[-109.055496,38.250511],[-109.059799,38.274212],[-109.060097,38.296612],[-109.060196,38.375011],[-109.060295,38.493214],[-109.059998,38.500812],[-109.000697,38.500012],[-108.781497,38.500012],[-108.764097,38.501412],[-108.758197,38.500012],[-108.380097,38.500012],[-108.378697,38.502212],[-108.378697,38.668812],[-108.375597,38.668112],[-108.325252,38.66815],[-108.322797,38.668712],[-108.303397,38.668312],[-108.291997,38.668312],[-108.275597,38.668712],[-108.270097,38.668412],[-108.265497,38.668612],[-108.250597,38.668412],[-108.2446,38.668512],[-108.244428,38.668136],[-107.848595,38.668114],[-107.774994,38.667912],[-107.737297,38.668312],[-107.530296,38.66851],[-107.500597,38.669412]]],[[[-107.867197,38.332312],[-107.854797,38.332212],[-107.727699,38.332314],[-107.718597,38.332111],[-107.641098,38.332111],[-107.634796,38.330811],[-107.631599,38.326214],[-107.634697,38.319412],[-107.636299,38.316414],[-107.635399,38.312611],[-107.633797,38.31031],[-107.6334,38.30751],[-107.634237,38.305255],[-107.634997,38.303212],[-107.634197,38.300512],[-107.632197,38.297912],[-107.630497,38.294712],[-107.629597,38.291212],[-107.629197,38.288312],[-107.626397,38.285412],[-107.625197,38.281812],[-107.624097,38.279612],[-107.619497,38.275212],[-107.617097,38.273812],[-107.615297,38.270212],[-107.612897,38.263512],[-107.611097,38.260612],[-107.607697,38.258412],[-107.601097,38.254712],[-107.597397,38.253412],[-107.593097,38.253312],[-107.590497,38.251512],[-107.588697,38.249012],[-107.587897,38.245712],[-107.586897,38.242512],[-107.586597,38.239012],[-107.582597,38.233512],[-107.579897,38.228412],[-107.580097,38.225712],[-107.579297,38.221712],[-107.580597,38.218412],[-107.579997,38.215312],[-107.580397,38.212712],[-107.577997,38.211212],[-107.575697,38.209412],[-107.575097,38.206212],[-107.575497,38.203712],[-107.575397,38.200412],[-107.574097,38.197412],[-107.572997,38.194312],[-107.572297,38.190712],[-107.572097,38.187012],[-107.570097,38.181712],[-107.567897,38.179812],[-107.566897,38.175912],[-107.567397,38.173512],[-107.567497,38.171512],[-107.566097,38.169012],[-107.564197,38.166112],[-107.563297,38.162212],[-107.562497,38.160212],[-107.562697,38.157012],[-107.563297,38.153012],[-107.563997,38.151212],[-107.565097,38.149812],[-107.568297,38.148112],[-107.571197,38.143512],[-107.572297,38.140712],[-107.573397,38.136812],[-107.569597,38.133812],[-107.568197,38.130812],[-107.564697,38.127612],[-107.563497,38.123012],[-107.563897,38.118212],[-107.562297,38.114712],[-107.561197,38.111812],[-107.561397,38.108412],[-107.562397,38.104112],[-107.562797,38.101012],[-107.564997,38.099012],[-107.564297,38.096712],[-107.562497,38.094912],[-107.560497,38.092412],[-107.560297,38.089512],[-107.559697,38.087512],[-107.557497,38.085512],[-107.555897,38.082512],[-107.553597,38.079612],[-107.550097,38.078512],[-107.543497,38.080212],[-107.536697,38.079412],[-107.533197,38.079512],[-107.530097,38.077112],[-107.527297,38.075912],[-107.525097,38.074312],[-107.523197,38.072212],[-107.519997,38.070412],[-107.516497,38.069212],[-107.514997,38.066212],[-107.512797,38.062712],[-107.511697,38.060212],[-107.515497,38.058212],[-107.518997,38.057912],[-107.522397,38.056412],[-107.521497,38.053012],[-107.521697,38.050412],[-107.522297,38.048212],[-107.521397,38.045012],[-107.522397,38.041812],[-107.525297,38.039612],[-107.528997,38.039512],[-107.531197,38.038212],[-107.533997,38.035012],[-107.536997,38.032112],[-107.537597,38.028612],[-107.539497,38.026512],[-107.537197,38.023412],[-107.537997,38.019612],[-107.539297,38.017312],[-107.539097,38.014912],[-107.537997,38.011912],[-107.538997,38.008512],[-107.542997,38.006012],[-107.546397,38.001012],[-107.549297,37.998712],[-107.555897,37.999412],[-107.559597,38.001012],[-107.561297,38.002512],[-107.563997,38.004112],[-107.566497,38.005212],[-107.574197,38.005412],[-107.577497,38.002712],[-107.579597,38.001212],[-107.581397,38.000312],[-107.584397,38.000012],[-107.586597,37.999112],[-107.586697,37.994412],[-107.588697,37.993012],[-107.591097,37.992212],[-107.589897,37.989312],[-107.589097,37.985512],[-107.587497,37.981812],[-107.585397,37.979112],[-107.584597,37.975912],[-107.586797,37.972712],[-107.587597,37.969412],[-107.584297,37.968012],[-107.580797,37.968312],[-107.574097,37.966912],[-107.570396,37.965611],[-107.577095,37.965012],[-107.625793,37.965012],[-107.641396,37.964211],[-107.640694,37.960812],[-107.641098,37.95631],[-107.642693,37.952114],[-107.6427,37.949612],[-107.640999,37.946411],[-107.641396,37.943111],[-107.640594,37.939911],[-107.642296,37.937313],[-107.641998,37.932114],[-107.640198,37.929211],[-107.638397,37.924911],[-107.638397,37.920513],[-107.646294,37.916512],[-107.648399,37.912811],[-107.650696,37.910011],[-107.653198,37.908913],[-107.656898,37.908112],[-107.661194,37.909214],[-107.661896,37.907013],[-107.662796,37.905411],[-107.664795,37.903511],[-107.6679,37.903011],[-107.670898,37.902912],[-107.679497,37.904213],[-107.681694,37.902813],[-107.684097,37.90081],[-107.686096,37.901314],[-107.688797,37.901611],[-107.690193,37.898811],[-107.692398,37.897114],[-107.693695,37.894112],[-107.697594,37.892513],[-107.701195,37.892311],[-107.702995,37.893112],[-107.7062,37.893913],[-107.708,37.896313],[-107.708595,37.898911],[-107.712196,37.898613],[-107.716194,37.897411],[-107.719498,37.897614],[-107.7239,37.898911],[-107.726898,37.900612],[-107.729897,37.902813],[-107.732094,37.904011],[-107.738097,37.904812],[-107.735597,37.910412],[-107.736597,37.913712],[-107.737197,37.916812],[-107.735397,37.918812],[-107.733297,37.920812],[-107.735197,37.924812],[-107.733297,37.926912],[-107.732797,37.929912],[-107.735097,37.931812],[-107.737897,37.934612],[-107.739197,37.939012],[-107.742697,37.940912],[-107.744397,37.945512],[-107.746297,37.949212],[-107.749697,37.953312],[-107.753497,37.954112],[-107.756097,37.955012],[-107.758397,37.957612],[-107.761197,37.959512],[-107.763997,37.959512],[-107.765997,37.960912],[-107.768797,37.961712],[-107.775197,37.962012],[-107.778197,37.961012],[-107.780397,37.961912],[-107.781797,37.963912],[-107.783397,37.966712],[-107.786097,37.972012],[-107.788797,37.974812],[-107.787197,37.978112],[-107.788897,37.980612],[-107.791297,37.982012],[-107.793497,37.986312],[-107.796097,37.988512],[-107.798597,37.988412],[-107.802497,37.987212],[-107.804997,37.988712],[-107.807797,37.989212],[-107.810997,37.990112],[-107.819397,37.989612],[-107.822397,37.988612],[-107.826697,37.988712],[-107.830397,37.989412],[-107.832697,37.990712],[-107.835397,37.991812],[-107.837997,37.992412],[-107.841997,37.991812],[-107.844797,37.991812],[-107.848297,37.992412],[-107.849397,37.994412],[-107.847997,37.996812],[-107.844197,37.998812],[-107.841797,38.000912],[-107.841997,38.004812],[-107.848497,38.008112],[-107.855297,38.008612],[-107.858597,38.008412],[-107.861497,38.009112],[-107.869197,38.007512],[-107.872097,38.007212],[-107.875197,38.007112],[-107.879097,38.008012],[-107.883197,38.007712],[-107.887697,38.010312],[-107.890497,38.013812],[-107.889597,38.017812],[-107.890597,38.020812],[-107.891197,38.024212],[-107.894697,38.025512],[-107.899197,38.026212],[-107.898997,38.028912],[-107.897097,38.031412],[-107.895997,38.035212],[-107.893697,38.038512],[-107.893197,38.041612],[-107.891197,38.043812],[-107.888497,38.045012],[-107.891497,38.049412],[-107.891897,38.051812],[-107.892097,38.055712],[-107.893197,38.058012],[-107.893497,38.060212],[-107.892897,38.072512],[-107.896697,38.086812],[-107.892097,38.087012],[-107.892397,38.094212],[-107.891497,38.108012],[-107.891497,38.115912],[-107.931597,38.115912],[-107.951597,38.116112],[-107.951497,38.125012],[-107.951697,38.141112],[-107.951897,38.145012],[-107.965497,38.144912],[-107.965797,38.152312],[-107.949597,38.152512],[-107.946997,38.153212],[-107.947497,38.166912],[-107.947297,38.173612],[-107.938097,38.174212],[-107.937697,38.213612],[-107.938597,38.219012],[-107.946997,38.218912],[-107.947097,38.226512],[-107.965397,38.226512],[-107.965597,38.233912],[-107.967697,38.234012],[-107.984197,38.233912],[-107.984097,38.244312],[-107.985097,38.248412],[-108.000497,38.248312],[-108.011497,38.249112],[-108.011497,38.255212],[-108.086597,38.255212],[-108.087197,38.262512],[-108.086397,38.284312],[-108.104197,38.284212],[-108.104797,38.313712],[-108.123297,38.313612],[-108.124597,38.320912],[-108.131797,38.321812],[-108.132397,38.331612],[-108.112897,38.331912],[-108.085797,38.332012],[-108.011697,38.331912],[-108.000597,38.332512],[-107.880297,38.332812],[-107.875597,38.332812],[-107.867197,38.332312]]],[[[-107.088297,40.225812],[-107.076597,40.225312],[-107.040197,40.225312],[-107.038097,40.225112],[-107.037797,40.210112],[-107.038097,40.196012],[-107.0383,40.169212],[-107.037796,40.164413],[-107.037697,40.136414],[-107.037399,40.111012],[-107.037399,40.091512],[-107.101797,40.091512],[-107.125597,40.091112],[-107.215497,40.090812],[-107.316997,40.090812],[-107.317097,40.022112],[-107.318197,40.003812],[-107.319297,40.000012],[-107.318797,39.915012],[-107.431697,39.917712],[-107.431597,39.875012],[-107.431797,39.828412],[-107.543997,39.828112],[-107.625597,39.829612],[-107.653597,39.829712],[-107.694197,39.830112],[-107.765497,39.826312],[-107.787197,39.825012],[-107.871697,39.824812],[-107.891397,39.825012],[-107.935697,39.825012],[-107.937997,39.825212],[-107.938497,39.813312],[-107.938597,39.794812],[-107.938697,39.746712],[-107.938497,39.732212],[-107.938697,39.705112],[-107.938497,39.694512],[-107.944797,39.694312],[-108.000597,39.694412],[-108.003197,39.694912],[-108.013397,39.695212],[-108.033697,39.694612],[-108.050597,39.695212],[-108.060297,39.695312],[-108.104997,39.695112],[-108.144297,39.695212],[-108.204797,39.695112],[-108.221397,39.693912],[-108.246397,39.694012],[-108.273197,39.694412],[-108.292597,39.694212],[-108.310297,39.694712],[-108.328197,39.694312],[-108.350597,39.694112],[-108.361097,39.694312],[-108.386897,39.694312],[-108.467897,39.694012],[-108.517297,39.694112],[-108.554697,39.693612],[-108.554597,39.650212],[-108.614697,39.649812],[-108.682597,39.649712],[-108.690297,39.649212],[-108.692797,39.649712],[-108.734697,39.649812],[-108.751097,39.650112],[-108.799197,39.650212],[-108.806397,39.650112],[-108.819097,39.650612],[-108.827997,39.650212],[-108.844197,39.650212],[-108.858093,39.650414],[-108.887097,39.650312],[-108.895697,39.651412],[-108.895797,39.660512],[-108.970297,39.660312],[-109.051193,39.660412],[-109.050896,39.726414],[-109.050598,39.863213],[-109.050697,39.933014],[-109.050995,39.994114],[-109.050797,40.056412],[-109.050995,40.110512],[-109.050797,40.134911],[-109.050995,40.14801],[-109.050995,40.173012],[-109.050797,40.219311],[-109.050293,40.222612],[-109.017197,40.222712],[-108.999997,40.222512],[-108.875697,40.222812],[-108.751997,40.222812],[-108.625697,40.222412],[-108.500697,40.222412],[-108.326797,40.221912],[-108.094597,40.221712],[-108.011897,40.222112],[-108.000597,40.222312],[-107.996197,40.222212],[-107.991297,40.222412],[-107.919997,40.222112],[-107.875597,40.222412],[-107.860097,40.222312],[-107.840697,40.222512],[-107.835997,40.222412],[-107.808897,40.222712],[-107.788497,40.222712],[-107.780197,40.222512],[-107.767397,40.222612],[-107.763197,40.223212],[-107.753597,40.223812],[-107.750597,40.223812],[-107.745397,40.223412],[-107.719397,40.223612],[-107.679297,40.223612],[-107.667997,40.223412],[-107.656197,40.223412],[-107.653897,40.223912],[-107.647497,40.224212],[-107.644197,40.224212],[-107.625597,40.224112],[-107.612097,40.223612],[-107.603297,40.223112],[-107.561597,40.222212],[-107.524997,40.221212],[-107.506697,40.220512],[-107.500597,40.220512],[-107.495597,40.220012],[-107.490997,40.220012],[-107.455197,40.220312],[-107.447897,40.220512],[-107.439397,40.220412],[-107.439397,40.223412],[-107.414897,40.223612],[-107.400197,40.223412],[-107.369297,40.223312],[-107.313297,40.223912],[-107.263697,40.224112],[-107.124797,40.225212],[-107.101097,40.225112],[-107.088297,40.225812]]],[[[-107.528793,37.909313],[-107.528198,37.907013],[-107.524895,37.904911],[-107.5224,37.902714],[-107.520195,37.901413],[-107.522095,37.898811],[-107.525993,37.89521],[-107.527496,37.891113],[-107.530197,37.88961],[-107.533096,37.888611],[-107.532593,37.884811],[-107.535995,37.878914],[-107.5354,37.874413],[-107.532593,37.87281],[-107.529999,37.871613],[-107.526794,37.869614],[-107.5243,37.866314],[-107.521194,37.861813],[-107.519699,37.858612],[-107.517998,37.856411],[-107.518295,37.853111],[-107.519798,37.848312],[-107.520996,37.846111],[-107.521599,37.844311],[-107.521896,37.842113],[-107.519699,37.839813],[-107.517395,37.836811],[-107.516495,37.832912],[-107.516998,37.829014],[-107.514999,37.826214],[-107.509895,37.824711],[-107.507195,37.824711],[-107.499893,37.823311],[-107.495995,37.823212],[-107.4916,37.824211],[-107.487793,37.823112],[-107.484395,37.82151],[-107.481697,37.819012],[-107.478197,37.816412],[-107.475197,37.815512],[-107.468597,37.808612],[-107.465597,37.801212],[-107.461797,37.797712],[-107.459697,37.794312],[-107.459397,37.790312],[-107.459997,37.786812],[-107.458897,37.782612],[-107.461297,37.779112],[-107.463397,37.777312],[-107.465897,37.771512],[-107.467097,37.768212],[-107.468697,37.765712],[-107.471597,37.766812],[-107.475197,37.767912],[-107.480397,37.768512],[-107.482097,37.751412],[-107.482197,37.639512],[-107.691697,37.639612],[-107.743197,37.639512],[-107.750597,37.640312],[-107.828497,37.640012],[-107.910197,37.639912],[-107.961697,37.639612],[-107.964497,37.640312],[-107.962397,37.641512],[-107.959497,37.643912],[-107.957697,37.648112],[-107.957797,37.650712],[-107.961397,37.658412],[-107.961697,37.661612],[-107.964297,37.664812],[-107.964397,37.667212],[-107.965697,37.670112],[-107.966697,37.672912],[-107.968497,37.675212],[-107.969397,37.678312],[-107.972197,37.681812],[-107.974497,37.683912],[-107.972097,37.686612],[-107.970597,37.689012],[-107.970297,37.691212],[-107.969097,37.693412],[-107.968097,37.696712],[-107.963997,37.699912],[-107.960197,37.702112],[-107.957697,37.704212],[-107.954897,37.706112],[-107.952597,37.706812],[-107.946897,37.706312],[-107.943997,37.705712],[-107.941897,37.703412],[-107.939297,37.702812],[-107.935897,37.703812],[-107.932097,37.706912],[-107.929897,37.709112],[-107.927297,37.710212],[-107.922097,37.710312],[-107.916397,37.711512],[-107.914197,37.712312],[-107.910997,37.712912],[-107.909797,37.715912],[-107.906297,37.717812],[-107.901997,37.718712],[-107.898397,37.719112],[-107.894897,37.718112],[-107.883397,37.718212],[-107.878597,37.716812],[-107.875097,37.718712],[-107.873397,37.721712],[-107.875597,37.725812],[-107.874597,37.730312],[-107.875097,37.733112],[-107.875297,37.737012],[-107.875197,37.739212],[-107.872797,37.742112],[-107.869897,37.745112],[-107.866297,37.747212],[-107.864897,37.750412],[-107.863897,37.753712],[-107.862497,37.756612],[-107.863197,37.759612],[-107.866397,37.761812],[-107.870197,37.763812],[-107.868097,37.767312],[-107.865597,37.768712],[-107.865297,37.771412],[-107.862797,37.773212],[-107.861198,37.776413],[-107.856094,37.776012],[-107.852097,37.776211],[-107.850296,37.776012],[-107.845596,37.77441],[-107.842697,37.773712],[-107.840294,37.775311],[-107.838799,37.778912],[-107.835098,37.783211],[-107.832199,37.785011],[-107.827499,37.789413],[-107.824295,37.790813],[-107.823593,37.793312],[-107.822495,37.795811],[-107.824295,37.796711],[-107.826096,37.798111],[-107.827995,37.799313],[-107.827095,37.801811],[-107.825294,37.80471],[-107.828896,37.809311],[-107.827499,37.812412],[-107.820999,37.815212],[-107.816696,37.819313],[-107.812996,37.820713],[-107.810394,37.822014],[-107.807899,37.82431],[-107.804199,37.824711],[-107.8013,37.823711],[-107.797699,37.823013],[-107.795296,37.82571],[-107.794693,37.828114],[-107.792793,37.830811],[-107.790199,37.836514],[-107.787895,37.838512],[-107.784996,37.840111],[-107.783096,37.840912],[-107.782997,37.843914],[-107.784393,37.846813],[-107.782593,37.848812],[-107.779495,37.849712],[-107.780296,37.862114],[-107.782295,37.867111],[-107.776794,37.867912],[-107.774399,37.868912],[-107.771698,37.871613],[-107.769096,37.873413],[-107.767494,37.875713],[-107.7659,37.877514],[-107.761299,37.877514],[-107.758194,37.880413],[-107.756294,37.884113],[-107.756195,37.888512],[-107.753197,37.891014],[-107.750595,37.892414],[-107.748497,37.894611],[-107.748894,37.897911],[-107.745598,37.898312],[-107.743698,37.899014],[-107.738097,37.904812],[-107.732094,37.904011],[-107.729897,37.902813],[-107.726898,37.900612],[-107.7239,37.898911],[-107.719498,37.897614],[-107.716194,37.897411],[-107.712196,37.898613],[-107.708595,37.898911],[-107.708,37.896313],[-107.7062,37.893913],[-107.702995,37.893112],[-107.701195,37.892311],[-107.697594,37.892513],[-107.693695,37.894112],[-107.692398,37.897114],[-107.690193,37.898811],[-107.688797,37.901611],[-107.686096,37.901314],[-107.684097,37.90081],[-107.681694,37.902813],[-107.679497,37.904213],[-107.670898,37.902912],[-107.6679,37.903011],[-107.664795,37.903511],[-107.662796,37.905411],[-107.661896,37.907013],[-107.661194,37.909214],[-107.656898,37.908112],[-107.653198,37.908913],[-107.650696,37.910011],[-107.648399,37.912811],[-107.646294,37.916512],[-107.638397,37.920513],[-107.638397,37.924911],[-107.640198,37.929211],[-107.641998,37.932114],[-107.642296,37.937313],[-107.640594,37.939911],[-107.641396,37.943111],[-107.640999,37.946411],[-107.6427,37.949612],[-107.642693,37.952114],[-107.641098,37.95631],[-107.640694,37.960812],[-107.641396,37.964211],[-107.625793,37.965012],[-107.577095,37.965012],[-107.570396,37.965611],[-107.568596,37.962513],[-107.565399,37.960911],[-107.563393,37.956711],[-107.557899,37.953312],[-107.553894,37.951611],[-107.550797,37.949814],[-107.5467,37.948914],[-107.543594,37.948612],[-107.537498,37.947514],[-107.533394,37.944412],[-107.532898,37.940212],[-107.5345,37.937214],[-107.537796,37.934311],[-107.538094,37.931812],[-107.538094,37.928711],[-107.535896,37.925411],[-107.536293,37.922314],[-107.534897,37.919613],[-107.531395,37.917313],[-107.529396,37.915112],[-107.529297,37.912312],[-107.528793,37.909313]]],[[[-108.900197,38.154812],[-108.880897,38.154012],[-108.875697,38.154112],[-108.858997,38.153812],[-108.836297,38.153912],[-108.821497,38.153612],[-108.778297,38.153312],[-108.750697,38.153412],[-108.741497,38.153112],[-108.705097,38.153212],[-108.686797,38.153012],[-108.631897,38.153112],[-108.625697,38.153312],[-108.580997,38.152812],[-108.539597,38.152612],[-108.522497,38.153312],[-108.414797,38.153312],[-108.375597,38.152812],[-108.325097,38.152512],[-108.286297,38.152512],[-108.260897,38.152712],[-108.237297,38.152512],[-108.233797,38.152912],[-108.227597,38.152412],[-108.189397,38.152312],[-108.170597,38.152312],[-108.136097,38.152712],[-108.125797,38.152712],[-108.113097,38.152212],[-108.038897,38.152712],[-108.027897,38.152612],[-108.011397,38.152712],[-107.984997,38.152212],[-107.965797,38.152312],[-107.965497,38.144912],[-107.951897,38.145012],[-107.951697,38.141112],[-107.951497,38.125012],[-107.951597,38.116112],[-107.931597,38.115912],[-107.891497,38.115912],[-107.891497,38.108012],[-107.892397,38.094212],[-107.892097,38.087012],[-107.896697,38.086812],[-107.892897,38.072512],[-107.893497,38.060212],[-107.893197,38.058012],[-107.892097,38.055712],[-107.891897,38.051812],[-107.891497,38.049412],[-107.888497,38.045012],[-107.891197,38.043812],[-107.893197,38.041612],[-107.893697,38.038512],[-107.895997,38.035212],[-107.897097,38.031412],[-107.898997,38.028912],[-107.899197,38.026212],[-107.894697,38.025512],[-107.891197,38.024212],[-107.890597,38.020812],[-107.889597,38.017812],[-107.890497,38.013812],[-107.887697,38.010312],[-107.883197,38.007712],[-107.879097,38.008012],[-107.875197,38.007112],[-107.872097,38.007212],[-107.869197,38.007512],[-107.861497,38.009112],[-107.858597,38.008412],[-107.855297,38.008612],[-107.848497,38.008112],[-107.841997,38.004812],[-107.841797,38.000912],[-107.844197,37.998812],[-107.847997,37.996812],[-107.849397,37.994412],[-107.848297,37.992412],[-107.844797,37.991812],[-107.841997,37.991812],[-107.837997,37.992412],[-107.835397,37.991812],[-107.832697,37.990712],[-107.830397,37.989412],[-107.826697,37.988712],[-107.822397,37.988612],[-107.819397,37.989612],[-107.810997,37.990112],[-107.807797,37.989212],[-107.804997,37.988712],[-107.802497,37.987212],[-107.798597,37.988412],[-107.796097,37.988512],[-107.793497,37.986312],[-107.791297,37.982012],[-107.788897,37.980612],[-107.787197,37.978112],[-107.788797,37.974812],[-107.786097,37.972012],[-107.783397,37.966712],[-107.781797,37.963912],[-107.780397,37.961912],[-107.778197,37.961012],[-107.775197,37.962012],[-107.768797,37.961712],[-107.765997,37.960912],[-107.763997,37.959512],[-107.761197,37.959512],[-107.758397,37.957612],[-107.756097,37.955012],[-107.753497,37.954112],[-107.749697,37.953312],[-107.746297,37.949212],[-107.744397,37.945512],[-107.742697,37.940912],[-107.739197,37.939012],[-107.737897,37.934612],[-107.735097,37.931812],[-107.732797,37.929912],[-107.733297,37.926912],[-107.735197,37.924812],[-107.733297,37.920812],[-107.735397,37.918812],[-107.737197,37.916812],[-107.736597,37.913712],[-107.735597,37.910412],[-107.738097,37.904812],[-107.743698,37.899014],[-107.745598,37.898312],[-107.748894,37.897911],[-107.748497,37.894611],[-107.750595,37.892414],[-107.753197,37.891014],[-107.756195,37.888512],[-107.756294,37.884113],[-107.758194,37.880413],[-107.761299,37.877514],[-107.7659,37.877514],[-107.767494,37.875713],[-107.769096,37.873413],[-107.771698,37.871613],[-107.774399,37.868912],[-107.776794,37.867912],[-107.782295,37.867111],[-107.780296,37.862114],[-107.779495,37.849712],[-107.782593,37.848812],[-107.784393,37.846813],[-107.782997,37.843914],[-107.783096,37.840912],[-107.784996,37.840111],[-107.787895,37.838512],[-107.790199,37.836514],[-107.792793,37.830811],[-107.794693,37.828114],[-107.795296,37.82571],[-107.797699,37.823013],[-107.8013,37.823711],[-107.804199,37.824711],[-107.807899,37.82431],[-107.810394,37.822014],[-107.812996,37.820713],[-107.816696,37.819313],[-107.820999,37.815212],[-107.827499,37.812412],[-107.828896,37.809311],[-107.825294,37.80471],[-107.827095,37.801811],[-107.827995,37.799313],[-107.826096,37.798111],[-107.824295,37.796711],[-107.822495,37.795811],[-107.823593,37.793312],[-107.824295,37.790813],[-107.827499,37.789413],[-107.832199,37.785011],[-107.835098,37.783211],[-107.838799,37.778912],[-107.840294,37.775311],[-107.842697,37.773712],[-107.845596,37.77441],[-107.850296,37.776012],[-107.852097,37.776211],[-107.856094,37.776012],[-107.861198,37.776413],[-107.864494,37.779011],[-107.867393,37.779713],[-107.870094,37.781212],[-107.870094,37.784012],[-107.8722,37.785614],[-107.874298,37.786312],[-107.877594,37.786213],[-107.885498,37.785313],[-107.887695,37.787014],[-107.8899,37.788914],[-107.890793,37.791714],[-107.889,37.797012],[-107.892097,37.802212],[-107.897293,37.804012],[-107.900894,37.805813],[-107.904198,37.806812],[-107.906097,37.810612],[-107.908897,37.811012],[-107.914093,37.814713],[-107.918594,37.820313],[-107.921898,37.823711],[-107.924896,37.823414],[-107.932693,37.823513],[-107.938293,37.82291],[-107.939995,37.824814],[-107.944199,37.827614],[-107.946999,37.830013],[-107.948097,37.833511],[-107.9505,37.835411],[-107.9543,37.834713],[-107.958595,37.834614],[-107.963196,37.832611],[-107.967194,37.831913],[-107.972397,37.832912],[-107.974899,37.835613],[-107.976997,37.839012],[-107.979393,37.842411],[-107.982094,37.844013],[-107.984497,37.845711],[-107.985893,37.847813],[-107.987297,37.850914],[-107.987793,37.854111],[-107.9897,37.856411],[-107.992599,37.856514],[-107.999496,37.85601],[-108.001694,37.856812],[-108.006294,37.855511],[-108.008293,37.855213],[-108.011497,37.856712],[-108.019897,37.855511],[-108.0224,37.855812],[-108.028793,37.855412],[-108.031296,37.855114],[-108.036499,37.852211],[-108.040398,37.851513],[-108.044296,37.851112],[-108.047897,37.850311],[-108.051498,37.846512],[-108.052994,37.845413],[-108.055496,37.842911],[-108.058998,37.841614],[-108.060699,37.844711],[-108.063797,37.846512],[-108.065598,37.849411],[-108.068794,37.851112],[-108.071899,37.847912],[-108.075096,37.847012],[-108.079399,37.844414],[-108.081696,37.843712],[-108.084396,37.841911],[-108.086899,37.841614],[-108.092094,37.840412],[-108.095596,37.841213],[-108.095695,37.845112],[-108.098495,37.848312],[-108.105499,37.851711],[-108.108696,37.853813],[-108.112099,37.854912],[-108.115997,37.854012],[-108.120193,37.853512],[-108.122894,37.852211],[-108.124893,37.85181],[-108.124596,37.849911],[-108.125099,37.847813],[-108.126694,37.845413],[-108.130295,37.843113],[-108.135094,37.839611],[-108.137398,37.837711],[-108.139297,37.835812],[-108.140594,37.832813],[-108.143394,37.835411],[-108.145897,37.838211],[-108.149094,37.837112],[-108.1502,37.834614],[-108.152893,37.835011],[-108.156998,37.834312],[-108.160995,37.834213],[-108.164299,37.834713],[-108.166794,37.832512],[-108.169701,37.831211],[-108.175095,37.832512],[-108.1782,37.831112],[-108.183197,37.826611],[-108.188095,37.82571],[-108.191299,37.824814],[-108.194893,37.824112],[-108.197395,37.824211],[-108.199699,37.823914],[-108.204193,37.822212],[-108.208199,37.821114],[-108.209999,37.822212],[-108.2108,37.82571],[-108.211197,37.829613],[-108.212898,37.832211],[-108.217697,37.835712],[-108.219299,37.837914],[-108.225296,37.842312],[-108.226799,37.843613],[-108.226593,37.845612],[-108.229095,37.853413],[-108.229797,37.857811],[-108.230698,37.86161],[-108.231995,37.864914],[-108.233299,37.867413],[-108.235298,37.870312],[-108.236397,37.873314],[-108.237694,37.875912],[-108.247795,37.879513],[-108.250496,37.884514],[-108.253494,37.885914],[-108.2556,37.887913],[-108.257599,37.890411],[-108.2565,37.894211],[-108.2808,37.894413],[-108.357399,37.893612],[-108.366295,37.89381],[-108.390797,37.893512],[-108.437797,37.893912],[-108.455097,37.894212],[-108.500597,37.894212],[-108.587197,37.894812],[-108.624897,37.895312],[-108.678997,37.895212],[-108.740797,37.895412],[-108.804497,37.895412],[-108.817597,37.894812],[-108.818597,37.892012],[-108.818297,37.888912],[-108.820297,37.886012],[-108.820197,37.883312],[-108.820997,37.880912],[-108.875897,37.881012],[-108.893497,37.880812],[-108.899597,37.881012],[-108.929297,37.881212],[-109.041496,37.881212],[-109.0411,37.907211],[-109.041695,37.924713],[-109.042,37.943512],[-109.042793,37.962612],[-109.042999,37.974312],[-109.042097,38.153012],[-108.999597,38.153512],[-108.988497,38.153412],[-108.980497,38.153612],[-108.949397,38.153512],[-108.942097,38.153712],[-108.911297,38.153312],[-108.900197,38.154812]]]]},"properties":{"event":"Hydrologic Outlook","headline":"Hydrologic Outlook issued October 9 at 10:53AM MDT by NWS Grand Junction CO","description":"ESFGJT\n\nA strong low pressure system off the Pacific Coast will begin to draw\nin tropical moisture associated with Topical Storm Rachel this\nweekend. This strong southerly fetch will draw anomalously high\nmoisture content across the Desert Southwest and into eastern Utah\nand western Colorado. The chance for widespread precipitation\nincreases Saturday evening into Sunday. Total precipitation forecasts\nrange from 1 to 3 inches across high terrain, with highest amounts\nfavoring the Uintas, Tavaputs and the Southwest San Juan mountains.\n\nEmbedded thunderstorms are also possible Sunday afternoon, increasing\nthe threat for flash flooding across vulnerable terrain. While\nconfidence in location and rainfall rates remain low at this time,\nthe potential for rapidly rising rivers, streams, normally dry\narroyos and slot canyons are possible Sunday through Monday.\n\nPlease follow the evolving forecast, especially if your plans\nincluding recreating or commuting across eastern Utah and western\nColorado Sunday onward. Also, keep in mind weather potential above\nyour location and upstream, particularly for those who reside below\nsensitive terrain like recent burn scars.","ends":"2026-10-12T18:00:00-06:00","severity":"Unknown","areaDesc":"Archuleta, CO; Delta, CO; Dolores, CO; Garfield, CO; Hinsdale, CO; La Plata, CO; Mesa, CO; Moffat, CO; Montezuma, CO; Montrose, CO; Ouray, CO; Rio Blanco, CO; San Juan, CO; San Miguel, CO; Daggett, UT; Grand, UT; San Juan, UT; Uintah, UT","id":"urn:oid:2.49.0.1.840.0.5953c0ab1d0bcab0b29fc3e9364e3d17cf28daf6.001.1","url":"https://api.weather.gov/alerts/urn:oid:2.49.0.1.840.0.5953c0ab1d0bcab0b29fc3e9364e3d17cf28daf6.001.1"}}]}