{"type":"FeatureCollection","features":[{"type":"Feature","geometry":{"type":"Point","coordinates":[-105.063167,40.417833]},"properties":{"callsign":"K5NWZ","temp_f":81,"humidity":25,"wind_speed_mph":2,"observed":"2026-10-10T23:09:07Z","network":"CWOP/APRS"}},{"type":"Feature","geometry":{"type":"Point","coordinates":[-104.713667,40.383833]},"properties":{"callsign":"N7SWJ","temp_f":79,"humidity":33,"wind_speed_mph":0,"observed":"2026-10-10T23:12:16Z","network":"CWOP/APRS"}},{"type":"Feature","geometry":{"type":"Point","coordinates":[-105.149,40.198333]},"properties":{"callsign":"N2XGL-1","temp_f":78,"humidity":28,"wind_speed_mph":3,"observed":"2026-10-10T23:11:21Z","network":"CWOP/APRS"}},{"type":"Feature","geometry":{"type":"Point","coordinates":[-105.147667,39.976667]},"properties":{"callsign":"W0RMT-13","temp_f":null,"humidity":null,"wind_speed_mph":null,"observed":"2026-10-10T23:12:13Z","network":"CWOP/APRS"}},{"type":"Feature","geometry":{"type":"Point","coordinates":[-105.005333,39.8195]},"properties":{"callsign":"GW4003","temp_f":79,"humidity":22,"wind_speed_mph":1,"observed":"2026-10-10T23:11:29Z","network":"CWOP/APRS"}},{"type":"Feature","geometry":{"type":"Point","coordinates":[-104.747333,39.790667]},"properties":{"callsign":"WI0K","temp_f":78,"humidity":24,"wind_speed_mph":2,"observed":"2026-10-10T23:12:10Z","network":"CWOP/APRS"}},{"type":"Feature","geometry":{"type":"Point","coordinates":[-105.860833,40.004833]},"properties":{"callsign":"KJ5PEC-13","temp_f":61,"humidity":39,"wind_speed_mph":7,"observed":"2026-10-10T23:12:10Z","network":"CWOP/APRS"}},{"type":"Feature","geometry":{"type":"Point","coordinates":[-104.970833,39.597]},"properties":{"callsign":"N0HEQ","temp_f":81,"humidity":23,"wind_speed_mph":0,"observed":"2026-10-10T23:12:04Z","network":"CWOP/APRS"}},{"type":"Feature","geometry":{"type":"Point","coordinates":[-105.385,39.584]},"properties":{"callsign":"NN5DX-12","temp_f":66,"humidity":29,"wind_speed_mph":1,"observed":"2026-10-10T23:05:17Z","network":"CWOP/APRS"}},{"type":"Feature","geometry":{"type":"Point","coordinates":[-105.3735,39.556667]},"properties":{"callsign":"KE0TNI-13","temp_f":64,"humidity":29,"wind_speed_mph":2,"observed":"2026-10-10T23:11:58Z","network":"CWOP/APRS"}},{"type":"Feature","geometry":{"type":"Point","coordinates":[-104.695167,39.5865]},"properties":{"callsign":"KE8FEN-13","temp_f":77,"humidity":29,"wind_speed_mph":1,"observed":"2026-10-10T23:10:06Z","network":"CWOP/APRS"}},{"type":"Feature","geometry":{"type":"Point","coordinates":[-104.924667,39.368833]},"properties":{"callsign":"WB7AAV","temp_f":77,"humidity":21,"wind_speed_mph":12,"observed":"2026-10-10T23:12:00Z","network":"CWOP/APRS"}},{"type":"Feature","geometry":{"type":"Point","coordinates":[-104.644667,39.4385]},"properties":{"callsign":"KG5TTF","temp_f":76,"humidity":22,"wind_speed_mph":0,"observed":"2026-10-10T23:08:55Z","network":"CWOP/APRS"}},{"type":"Feature","geometry":{"type":"Point","coordinates":[-104.931833,39.200333]},"properties":{"callsign":"N4CRH-13","temp_f":71,"humidity":27,"wind_speed_mph":4,"observed":"2026-10-10T23:09:01Z","network":"CWOP/APRS"}},{"type":"Feature","geometry":{"type":"Point","coordinates":[-104.822667,39.066667]},"properties":{"callsign":"KF0TNT","temp_f":75,"humidity":25,"wind_speed_mph":11,"observed":"2026-10-10T23:11:17Z","network":"CWOP/APRS"}},{"type":"Feature","geometry":{"type":"Point","coordinates":[-104.783667,39.046167]},"properties":{"callsign":"N5JXS","temp_f":73,"humidity":25,"wind_speed_mph":3,"observed":"2026-10-10T23:08:38Z","network":"CWOP/APRS"}},{"type":"Feature","geometry":{"type":"Point","coordinates":[-104.641667,38.998]},"properties":{"callsign":"K0QED","temp_f":70,"humidity":31,"wind_speed_mph":0,"observed":"2026-10-10T23:12:28Z","network":"CWOP/APRS"}},{"type":"Feature","geometry":{"type":"Point","coordinates":[-104.725333,38.938333]},"properties":{"callsign":"WB0YAF-8","temp_f":75,"humidity":31,"wind_speed_mph":0,"observed":"2026-10-10T23:12:29Z","network":"CWOP/APRS"}},{"type":"Feature","geometry":{"type":"Point","coordinates":[-105.768167,39.089333]},"properties":{"callsign":"WD4IXD-WX","temp_f":57,"humidity":42,"wind_speed_mph":10,"observed":"2026-10-10T23:10:15Z","network":"CWOP/APRS"}},{"type":"Feature","geometry":{"type":"Point","coordinates":[-104.835667,38.863667]},"properties":{"callsign":"KF0PEC-15","temp_f":49,"humidity":71,"wind_speed_mph":0,"observed":"2026-10-10T23:08:20Z","network":"CWOP/APRS"}},{"type":"Feature","geometry":{"type":"Point","coordinates":[-104.850333,38.7975]},"properties":{"callsign":"W1REE","temp_f":76,"humidity":24,"wind_speed_mph":3,"observed":"2026-10-10T23:11:35Z","network":"CWOP/APRS"}},{"type":"Feature","geometry":{"type":"Point","coordinates":[-104.664833,38.7205]},"properties":{"callsign":"N0RHA","temp_f":76,"humidity":28,"wind_speed_mph":5,"observed":"2026-10-10T23:08:49Z","network":"CWOP/APRS"}},{"type":"Feature","geometry":{"type":"Point","coordinates":[-104.033333,38.716667]},"properties":{"callsign":"KB0VBZ","temp_f":97,"humidity":null,"wind_speed_mph":9,"observed":"2026-10-10T23:00:27Z","network":"CWOP/APRS"}},{"type":"Feature","geometry":{"type":"Point","coordinates":[-104.7045,38.393333]},"properties":{"callsign":"KD0SBN","temp_f":85,"humidity":26,"wind_speed_mph":3,"observed":"2026-10-10T23:10:41Z","network":"CWOP/APRS"}},{"type":"Feature","geometry":{"type":"Point","coordinates":[-105.151333,38.382]},"properties":{"callsign":"W0NLK-13","temp_f":80,"humidity":null,"wind_speed_mph":3,"observed":"2026-10-10T23:02:37Z","network":"CWOP/APRS"}},{"type":"Feature","geometry":{"type":"Point","coordinates":[-104.947833,37.285667]},"properties":{"callsign":"KD0SBN-3","temp_f":60,"humidity":43,"wind_speed_mph":2,"observed":"2026-10-10T23:11:12Z","network":"CWOP/APRS"}},{"type":"Feature","geometry":{"type":"Point","coordinates":[-107.335333,39.563167]},"properties":{"callsign":"K9MWM-1","temp_f":56,"humidity":null,"wind_speed_mph":0,"observed":"2026-10-10T23:11:18Z","network":"CWOP/APRS"}},{"type":"Feature","geometry":{"type":"Point","coordinates":[-106.119667,38.834167]},"properties":{"callsign":"W1CAT","temp_f":66,"humidity":39,"wind_speed_mph":1,"observed":"2026-10-10T23:08:55Z","network":"CWOP/APRS"}},{"type":"Feature","geometry":{"type":"Point","coordinates":[-106.1085,38.819]},"properties":{"callsign":"KF5WCW-1","temp_f":66,"humidity":37,"wind_speed_mph":7,"observed":"2026-10-10T23:10:07Z","network":"CWOP/APRS"}},{"type":"Feature","geometry":{"type":"Point","coordinates":[-107.773333,39.553]},"properties":{"callsign":"N0THY","temp_f":63,"humidity":57,"wind_speed_mph":0,"observed":"2026-10-10T23:09:09Z","network":"CWOP/APRS"}},{"type":"Feature","geometry":{"type":"Point","coordinates":[-106.0035,38.528167]},"properties":{"callsign":"SALIDA","temp_f":69,"humidity":35,"wind_speed_mph":5,"observed":"2026-10-10T23:10:40Z","network":"CWOP/APRS"}},{"type":"Feature","geometry":{"type":"Point","coordinates":[-107.029667,37.265167]},"properties":{"callsign":"KC0OOO-WX","temp_f":63,"humidity":58,"wind_speed_mph":0,"observed":"2026-10-10T23:11:30Z","network":"CWOP/APRS"}},{"type":"Feature","geometry":{"type":"Point","coordinates":[-107.787167,37.206]},"properties":{"callsign":"KY0TEQ-13","temp_f":62,"humidity":60,"wind_speed_mph":1,"observed":"2026-10-10T23:07:58Z","network":"CWOP/APRS"}},{"type":"Feature","geometry":{"type":"Point","coordinates":[-108.498167,39.085833]},"properties":{"callsign":"AB0TJ","temp_f":94,"humidity":12,"wind_speed_mph":2,"observed":"2026-10-10T23:08:49Z","network":"CWOP/APRS"}},{"type":"Feature","geometry":{"type":"Point","coordinates":[-103.2165,40.626167]},"properties":{"callsign":"WX0ABE-13","temp_f":84,"humidity":20,"wind_speed_mph":2,"observed":"2026-10-10T23:11:52Z","network":"CWOP/APRS"}}]}