{"type":"FeatureCollection","features":[{"type":"Feature","geometry":{"type":"Point","coordinates":[-107.61427,37.3261]},"properties":{"brightness":295.08,"frp":0.22,"confidence":"n","observed":"2026-10-08T08:35:00Z","satellite":"N"}},{"type":"Feature","geometry":{"type":"Point","coordinates":[-103.31922,37.50227]},"properties":{"brightness":297.93,"frp":1.27,"confidence":"n","observed":"2026-10-08T08:35:00Z","satellite":"N"}},{"type":"Feature","geometry":{"type":"Point","coordinates":[-104.60594,38.12843]},"properties":{"brightness":302.36,"frp":1.39,"confidence":"n","observed":"2026-10-08T08:35:00Z","satellite":"N"}},{"type":"Feature","geometry":{"type":"Point","coordinates":[-104.60614,38.23448]},"properties":{"brightness":303.12,"frp":1.38,"confidence":"n","observed":"2026-10-08T08:35:00Z","satellite":"N"}},{"type":"Feature","geometry":{"type":"Point","coordinates":[-104.70381,39.65491]},"properties":{"brightness":298.57,"frp":0.77,"confidence":"n","observed":"2026-10-08T08:35:00Z","satellite":"N"}},{"type":"Feature","geometry":{"type":"Point","coordinates":[-104.60325,38.23793]},"properties":{"brightness":300.24,"frp":1.6,"confidence":"n","observed":"2026-10-08T10:13:00Z","satellite":"N"}},{"type":"Feature","geometry":{"type":"Point","coordinates":[-103.37096,37.43125]},"properties":{"brightness":349.85,"frp":7.43,"confidence":"n","observed":"2026-10-08T19:54:00Z","satellite":"N"}},{"type":"Feature","geometry":{"type":"Point","coordinates":[-109.01272,38.0245]},"properties":{"brightness":339.18,"frp":12.38,"confidence":"n","observed":"2026-10-08T19:55:00Z","satellite":"N"}},{"type":"Feature","geometry":{"type":"Point","coordinates":[-109.00769,38.02563]},"properties":{"brightness":367,"frp":12.38,"confidence":"h","observed":"2026-10-08T19:55:00Z","satellite":"N"}},{"type":"Feature","geometry":{"type":"Point","coordinates":[-109.00952,38.02978]},"properties":{"brightness":349.65,"frp":10.66,"confidence":"n","observed":"2026-10-08T19:55:00Z","satellite":"N"}},{"type":"Feature","geometry":{"type":"Point","coordinates":[-104.57181,38.31501]},"properties":{"brightness":347.9,"frp":5.66,"confidence":"n","observed":"2026-10-08T19:55:00Z","satellite":"N"}}]}