{"type":"FeatureCollection","features":[{"type":"Feature","properties":{"density":"light"},"geometry":{"type":"Polygon","coordinates":[[[-110.818509765625,42.785375],[-110.8552516993289,42.80742064903369],[-110.89383115705459,42.83681452158659],[-110.97650142360965,42.89376514965784],[-111.04814898795735,42.980109650282],[-111.0922397967867,43.086662438286275],[-111.10693673306315,43.149124417461195],[-111.11244808416683,43.22260909884346],[-111.09775114789038,43.27955972691471],[-111.07937997754482,43.30160513132939],[-111.03528916871545,43.299768014294834],[-111.01140664726621,43.27221125877649],[-110.98384989174787,43.20056369442878],[-110.9654787214023,43.134427481184744],[-110.94710755105673,43.06461703387159],[-110.91771367850383,43.01501487393857],[-110.88097133781271,42.965412714005545],[-110.84239188008702,42.91029920296885],[-110.79462683718856,42.85151145786304],[-110.78176701794666,42.81844335124103],[-110.77441854980843,42.7982350638609],[-110.78176701794666,42.78904947868812],[-110.79095260311944,42.78353812758445],[-110.818509765625,42.785375]]]}},{"type":"Feature","properties":{"density":"light"},"geometry":{"type":"Polygon","coordinates":[[[-110.893810546875,42.82038671875],[-110.92973628311671,42.859578126464285],[-110.96321265029522,42.91673289969589],[-110.9787260887438,42.966539202083425],[-110.9721941146602,42.99756607898058],[-110.93871774748168,43.00736404010601],[-110.8962599159382,42.98940111137607],[-110.8644165422806,42.960823724760274],[-110.83257316862299,42.919998886737694],[-110.80726176904898,42.88244003575693],[-110.79501431764221,42.85059666209932],[-110.7884823435586,42.82038628196261],[-110.7917483306004,42.79752437266997],[-110.80807826580943,42.787726411544554],[-110.82604119453937,42.7852769212632],[-110.85135259411337,42.79425838562816],[-110.8676825293224,42.80405634675358],[-110.87992998072917,42.80977182407674],[-110.893810546875,42.82038671875]]]}},{"type":"Feature","properties":{"density":"light"},"geometry":{"type":"Polygon","coordinates":[[[-103.2969853515625,37.532375],[-103.27357866412127,37.53509729515643],[-103.23275381578398,37.532919969911774],[-103.20009393711415,37.52312200631082],[-103.1647124018885,37.508425060909396],[-103.1374958363303,37.479575501417706],[-103.1238875535512,37.45290326717068],[-103.1195329030619,37.426775364234814],[-103.12443188486236,37.403369117854766],[-103.1494711251759,37.395748479498465],[-103.17940934728992,37.403369117854766],[-103.22404451480536,37.425142370301316],[-103.25561573085287,37.43820632176926],[-103.28555395296688,37.44528262881438],[-103.30950453065809,37.45290326717068],[-103.31930249425903,37.47141053175025],[-103.3267416878399,37.495905443013996],[-103.3227499235094,37.510420949670305],[-103.31658083318048,37.52239624266174],[-103.30460554018903,37.53219420965475],[-103.2969853515625,37.532375]]]}},{"type":"Feature","properties":{"density":"light"},"geometry":{"type":"Polygon","coordinates":[[[-103.2442138671875,37.467396484375],[-103.27632952471103,37.45269867553459],[-103.31225538788726,37.44725536293214],[-103.3432822697213,37.45433166931532],[-103.36832150769263,37.470117275862464],[-103.38846176432173,37.49515651383379],[-103.40315870834839,37.5223730768461],[-103.40642469590985,37.543601995995694],[-103.39118342062297,37.556665946241594],[-103.36070087004919,37.55394428994037],[-103.33293997577663,37.545779321036676],[-103.30354608772335,37.538158683393235],[-103.27741818723152,37.53271537079077],[-103.25346761178069,37.520195751805105],[-103.23822633649381,37.505498807778466],[-103.23278302389134,37.488080207450594],[-103.23278302389134,37.47882657602641],[-103.23713767397331,37.47120593838296],[-103.2442138671875,37.467396484375]]]}},{"type":"Feature","properties":{"density":"light"},"geometry":{"type":"Polygon","coordinates":[[[-110.85200585937501,42.85365234375],[-110.8209788357746,42.87569694947098],[-110.78423648499123,42.897742359941006],[-110.74994362426008,42.905090830097684],[-110.7238157303697,42.90917331351805],[-110.69033936632262,42.91243930025435],[-110.65278051885518,42.9108063068862],[-110.62338663822848,42.89610936657286],[-110.60052473107439,42.873247459418764],[-110.59399275760178,42.843037082108],[-110.60460721449476,42.81282670479722],[-110.6389000752259,42.798129764483875],[-110.67890841274557,42.7940472810635],[-110.71483426684486,42.79159779101127],[-110.74994362426008,42.78588231422275],[-110.77117253804603,42.78016683743422],[-110.7998406492754,42.7704595966886],[-110.81471904220636,42.76755649562891],[-110.83286342382948,42.769733821423685],[-110.84629026623058,42.774814248278155],[-110.85717689520446,42.787152427781876],[-110.8644346478537,42.805659697037456],[-110.8644346478537,42.8216267528658],[-110.85790267046937,42.844851561343376],[-110.85200585937501,42.85365234375]]]}},{"type":"Feature","properties":{"density":"light"},"geometry":{"type":"Polygon","coordinates":[[[-110.86172070312502,42.866791015625],[-110.77772150479457,42.92079136100666],[-110.69572150479458,42.96179136100669],[-110.61472150479456,42.996791361006686],[-110.54822151154545,43.00579136100667],[-110.45972154218413,42.996791364122444],[-110.34722158113158,42.984791368276845],[-110.25122161436676,42.99229136568035],[-110.12972165643001,43.00729136048736],[-110.01722169537749,43.00279136204528],[-109.91522173068984,42.95479137866283],[-109.80872176756012,42.902291396838315],[-109.7832217763882,42.87529140618571],[-109.74872178833209,42.82729142280331],[-109.72922179508298,42.762791445133196],[-109.72622179612158,42.686291471617466],[-109.75172178729349,42.62029149446663],[-109.8012217701566,42.5407915219895],[-109.85072175301973,42.512291531856214],[-109.93622172341965,42.51079153237549],[-110.07722167460551,42.52729152666322],[-110.17472164085103,42.548291519393004],[-110.26772160865447,42.57379151056491],[-110.33222158632458,42.60229150069822],[-110.39222156555262,42.63679148875434],[-110.45522154374203,42.66679147836834],[-110.52872151829635,42.701291466424465],[-110.59322149596647,42.723791458634956],[-110.6817214653278,42.73729145396126],[-110.74772144247862,42.74029145292269],[-110.82422142118733,42.735791449287575],[-110.86622142118733,42.742791449287594],[-110.89022142118733,42.76579144928759],[-110.89422142118734,42.79779144928757],[-110.88522142118734,42.82579144928758],[-110.87222142118733,42.85279144928757],[-110.86172070312502,42.866791015625]]]}},{"type":"Feature","properties":{"density":"light"},"geometry":{"type":"Polygon","coordinates":[[[-111.8324453125,42.69992382812501],[-111.8194445867009,42.735924166160935],[-111.77044458670089,42.772924166160934],[-111.7344445867009,42.79492416616093],[-111.6864445867009,42.805924166160935],[-111.6344445867009,42.81092416616093],[-111.5974445867009,42.81292416616093],[-111.54144458670089,42.80992416616093],[-111.45744458670089,42.80492416616093],[-111.38044458670089,42.79592416616093],[-111.2984445867009,42.77192416616093],[-111.21344458670089,42.744924166160935],[-111.15144458670089,42.714924166160934],[-111.1014445867009,42.67592416616093],[-111.0634445867009,42.63392416616094],[-111.0424445867009,42.594924166160936],[-111.05044458670089,42.56092416616093],[-111.0934445867009,42.537924166160934],[-111.19044458670089,42.53592416616094],[-111.30344458670089,42.55192416616093],[-111.3994445867009,42.57192416616093],[-111.52944458670089,42.59092416616094],[-111.6134445867009,42.610924166160935],[-111.6974445867009,42.62992416616093],[-111.7574445867009,42.64192416616093],[-111.80244458670089,42.65592416616093],[-111.82444458670089,42.665924166160934],[-111.8344445867009,42.67692416616093],[-111.8354445867009,42.68192416616093],[-111.8324453125,42.69992382812501]]]}},{"type":"Feature","properties":{"density":"medium"},"geometry":{"type":"Polygon","coordinates":[[[-110.84261523437499,42.841404296875],[-110.79036020969778,42.875696948622966],[-110.74300340202143,42.892026882304464],[-110.69156411092472,42.899375352461135],[-110.65890424356172,42.896925862408914],[-110.640124819828,42.885494908831866],[-110.63522583972355,42.86753198178222],[-110.64584029661651,42.85038555141665],[-110.67686717061137,42.83568861110329],[-110.72014149486733,42.8258906508944],[-110.76341581912331,42.80874422052882],[-110.79036020969778,42.79568027358363],[-110.81403861353596,42.78669881005881],[-110.83363453395374,42.78424932000658],[-110.84751497758302,42.79894626031993],[-110.85241395768747,42.817725684053656],[-110.84751497758302,42.834055617735146],[-110.84261523437499,42.841404296875]]]}},{"type":"Feature","properties":{"density":"medium"},"geometry":{"type":"Polygon","coordinates":[[[-110.859943359375,42.837847656250034],[-110.8432771253855,42.85051354851311],[-110.81127711430713,42.871846889232025],[-110.75327709422754,42.90651356790034],[-110.71327708037956,42.925846907926854],[-110.67061039894169,42.94251358036348],[-110.62327704922157,42.954513584517876],[-110.57594369950144,42.96384692108245],[-110.53194368426867,42.968513589364676],[-110.45527701183198,42.95151358867231],[-110.42727701183199,42.93551358867228],[-110.387277011832,42.93051358867227],[-110.334277011832,42.94251358867228],[-110.28827701183198,42.95151358867231],[-110.24327701183199,42.95951358867227],[-110.181277011832,42.96351358867231],[-110.13427701183198,42.95551358867228],[-110.091277011832,42.943513588672275],[-110.035277011832,42.91851358867228],[-109.966277011832,42.86851358867233],[-109.915277011832,42.83251358867233],[-109.88827701183199,42.800513588672274],[-109.88027701183199,42.77151358867231],[-109.87127701183198,42.72751358867228],[-109.875277011832,42.69551358867228],[-109.898277011832,42.64951358867228],[-109.94427701183199,42.60851358867227],[-109.99827701183199,42.589513588672276],[-110.051277011832,42.585513588672285],[-110.13827701183199,42.61651358867229],[-110.20927701183199,42.638513588672296],[-110.27227701183199,42.65751358867228],[-110.35327701183198,42.692513588672284],[-110.43727701183201,42.716513588672285],[-110.49127701183198,42.73951358867228],[-110.63927702547551,42.76284692234249],[-110.68461037026267,42.774180258539275],[-110.71594371151264,42.7768469258797],[-110.75861038895935,42.77018025752864],[-110.81772150782707,42.77262470636123],[-110.84638816780769,42.77195803985005],[-110.8577214984977,42.790624702163],[-110.86372149709828,42.80262469936419],[-110.86505483012064,42.8252913607442],[-110.859943359375,42.837847656250034]]]}},{"type":"Feature","properties":{"density":"heavy"},"geometry":{"type":"Polygon","coordinates":[[[-110.8468671875,42.830916015625],[-110.82286729429403,42.85091619700911],[-110.79620061839536,42.862916201163515],[-110.75086726936765,42.888249543267236],[-110.7022005858526,42.90624954949884],[-110.63153389472113,42.93091622470509],[-110.58953388018075,42.93824956057723],[-110.54886719943529,42.94358289575696],[-110.50953385248476,42.936916226782294],[-110.48486717727852,42.922916221935495],[-110.46153383586719,42.9009162143191],[-110.4508671655077,42.858916199778704],[-110.45620050068744,42.82024951972566],[-110.48220050968864,42.793582843827],[-110.53086719320369,42.78291617346753],[-110.58686721259089,42.781582839672595],[-110.64686723336287,42.78224950657006],[-110.68220057892859,42.79491617762192],[-110.73753393141831,42.79491617762192],[-110.76820060870176,42.78891617554473],[-110.80220062047258,42.78491617415993],[-110.82286729429403,42.786249507954864],[-110.84286730121804,42.79491617762192],[-110.8555339722699,42.80691618177632],[-110.84864508043461,42.82513841221605],[-110.8468671875,42.830916015625]]]}}]}