{"type":"FeatureCollection","features":[{"type":"Feature","properties":{"DN":5,"VALID":"202610101200","EXPIRE":"202610111200","ISSUE":"202610100600","VALID_ISO":"2026-10-10T12:00:00+00:00","EXPIRE_ISO":"2026-10-11T12:00:00+00:00","ISSUE_ISO":"2026-10-10T06:00:00+00:00","FORECASTER":"Chalmers","LABEL":"ELEV","LABEL2":"Elevated Fire Risk","stroke":"#FF7F00","fill":"#FFBF80","product":"day1_windrh"},"geometry":{"type":"MultiPolygon","coordinates":[[[[-119.43,38.25],[-120.02,38.75],[-120.27,39.28],[-120.06,39.65],[-119.85,40.13],[-119.63,40.46],[-119.25,40.77],[-118.5,41.01],[-117.86,41.07],[-117,41.26],[-116.51,41.39],[-115.8,41.56],[-115.38,41.54],[-115.14,41.42],[-115.09,41.27],[-115.03999999999999,40.94],[-115.19,40.39],[-115.48,40.07],[-115.82,39.76],[-116.78,39.03],[-118.03999999999999,38.09],[-118.14,37.62],[-118.32,37.48],[-118.59,37.46],[-118.85,37.52],[-119.14,37.82],[-119.43,38.25]]],[[[-105.4,41.77],[-105.5,41.92],[-105.53,42.05],[-105.63,42.19],[-105.76,42.34],[-106.03,42.48],[-106.27,42.59],[-106.52,42.7],[-106.59,42.84],[-106.61,43.02],[-106.62,43.27],[-106.51,43.93],[-106.46,44.3],[-106.3,44.69],[-105.72,44.84],[-105.2,44.9],[-104.67,44.64],[-104.4,44.38],[-103.69,43.53],[-103.5,42.85],[-103.72,41.75],[-103.87,41.32],[-104.41,41.11],[-104.68,41.16],[-104.94,41.4],[-105.4,41.76],[-105.4,41.77]]]]}}]}